<?xml version="1.0" encoding="UTF-8"?>
<gpx version="1.1" creator="SML Moto — example generator"
     xmlns="http://www.topografix.com/GPX/1/1"
     xmlns:xsi="http://www.w3.org/2001/XMLSchema-instance"
     xsi:schemaLocation="http://www.topografix.com/GPX/1/1 http://www.topografix.com/GPX/1/1/gpx.xsd">
  <metadata>
    <name>Furka · Grimsel · Susten — navigation</name>
    <desc>UKAZKOVY OBSAH — priamkova interpolacia medzi priesmykmi, nie skutocna cesta. Sluzi na test doručovania, nie na navigaciu.</desc>
  </metadata>
  <rte>
    <name>Furka · Grimsel · Susten</name>
    <rtept lat="47.040000" lon="9.067000"><name>Furka — štart</name></rtept>
    <rtept lat="46.919000" lon="9.010000"><name>Furka 1</name></rtept>
    <rtept lat="46.881000" lon="8.644000"><name>Furka 2</name></rtept>
    <rtept lat="47.171000" lon="8.102000"><name>Furka 3</name></rtept>
    <rtept lat="46.728000" lon="8.181000"><name>Furka 4</name></rtept>
    <rtept lat="46.636000" lon="8.594000"><name>Furka 5</name></rtept>
    <rtept lat="46.710000" lon="8.229000"><name>Furka 6</name></rtept>
    <rtept lat="46.728000" lon="8.181000"><name>Furka — cieľ</name></rtept>
  </rte>
</gpx>
