<?xml version="1.0" encoding="UTF-8"?>
<gpx version="1.1" creator="SML Moto — example generator"
     xmlns="http://www.topografix.com/GPX/1/1"
     xmlns:xsi="http://www.w3.org/2001/XMLSchema-instance"
     xsi:schemaLocation="http://www.topografix.com/GPX/1/1 http://www.topografix.com/GPX/1/1/gpx.xsd">
  <metadata>
    <name>Transfăgărășan — points of interest</name>
    <desc>UKAZKOVY OBSAH — priamkova interpolacia medzi priesmykmi, nie skutocna cesta. Sluzi na test doručovania, nie na navigaciu.</desc>
  </metadata>
  <wpt lat="45.200000" lon="24.619000">
    <name>Transfăgărășan 1</name>
    <sym>Summit</sym>
  </wpt>
  <wpt lat="45.361000" lon="24.624000">
    <name>Transfăgărășan 2</name>
    <sym>Summit</sym>
  </wpt>
  <wpt lat="45.399000" lon="24.628000">
    <name>Transfăgărășan 3</name>
    <sym>Summit</sym>
  </wpt>
  <wpt lat="45.561000" lon="24.519000">
    <name>Transfăgărășan 4</name>
    <sym>Summit</sym>
  </wpt>
</gpx>
