<?xml version="1.0" encoding="UTF-8"?>
<gpx version="1.1" creator="SML Moto — example generator"
     xmlns="http://www.topografix.com/GPX/1/1"
     xmlns:xsi="http://www.w3.org/2001/XMLSchema-instance"
     xsi:schemaLocation="http://www.topografix.com/GPX/1/1 http://www.topografix.com/GPX/1/1/gpx.xsd">
  <metadata>
    <name>Central Alps Trilogy — Furka, Grimsel, Susten — track</name>
    <desc>UKAZKOVY OBSAH — priamkova interpolacia medzi priesmykmi, nie skutocna cesta. Sluzi na test doručovania, nie na navigaciu.</desc>
  </metadata>
  <trk>
    <name>Central Alps Trilogy — Furka, Grimsel, Susten</name>
    <trkseg>
      <trkpt lat="46.686300" lon="8.594400" />
      <trkpt lat="46.683455" lon="8.589908" />
      <trkpt lat="46.680610" lon="8.585415" />
      <trkpt lat="46.677765" lon="8.580922" />
      <trkpt lat="46.674920" lon="8.576430" />
      <trkpt lat="46.672075" lon="8.571938" />
      <trkpt lat="46.669230" lon="8.567445" />
      <trkpt lat="46.666385" lon="8.562952" />
      <trkpt lat="46.663540" lon="8.558460" />
      <trkpt lat="46.660695" lon="8.553968" />
      <trkpt lat="46.657850" lon="8.549475" />
      <trkpt lat="46.655005" lon="8.544982" />
      <trkpt lat="46.652160" lon="8.540490" />
      <trkpt lat="46.649315" lon="8.535998" />
      <trkpt lat="46.646470" lon="8.531505" />
      <trkpt lat="46.643625" lon="8.527012" />
      <trkpt lat="46.640780" lon="8.522520" />
      <trkpt lat="46.637935" lon="8.518028" />
      <trkpt lat="46.635090" lon="8.513535" />
      <trkpt lat="46.632245" lon="8.509042" />
      <trkpt lat="46.629400" lon="8.504550" />
      <trkpt lat="46.626555" lon="8.500058" />
      <trkpt lat="46.623710" lon="8.495565" />
      <trkpt lat="46.620865" lon="8.491072" />
      <trkpt lat="46.618020" lon="8.486580" />
      <trkpt lat="46.615175" lon="8.482088" />
      <trkpt lat="46.612330" lon="8.477595" />
      <trkpt lat="46.609485" lon="8.473102" />
      <trkpt lat="46.606640" lon="8.468610" />
      <trkpt lat="46.603795" lon="8.464118" />
      <trkpt lat="46.600950" lon="8.459625" />
      <trkpt lat="46.598105" lon="8.455132" />
      <trkpt lat="46.595260" lon="8.450640" />
      <trkpt lat="46.592415" lon="8.446148" />
      <trkpt lat="46.589570" lon="8.441655" />
      <trkpt lat="46.586725" lon="8.437162" />
      <trkpt lat="46.583880" lon="8.432670" />
      <trkpt lat="46.581035" lon="8.428178" />
      <trkpt lat="46.578190" lon="8.423685" />
      <trkpt lat="46.575345" lon="8.419192" />
      <trkpt lat="46.572500" lon="8.414700" />
      <trkpt lat="46.572222" lon="8.412762" />
      <trkpt lat="46.571945" lon="8.410825" />
      <trkpt lat="46.571667" lon="8.408888" />
      <trkpt lat="46.571390" lon="8.406950" />
      <trkpt lat="46.571112" lon="8.405012" />
      <trkpt lat="46.570835" lon="8.403075" />
      <trkpt lat="46.570557" lon="8.401137" />
      <trkpt lat="46.570280" lon="8.399200" />
      <trkpt lat="46.570003" lon="8.397263" />
      <trkpt lat="46.569725" lon="8.395325" />
      <trkpt lat="46.569447" lon="8.393387" />
      <trkpt lat="46.569170" lon="8.391450" />
      <trkpt lat="46.568892" lon="8.389513" />
      <trkpt lat="46.568615" lon="8.387575" />
      <trkpt lat="46.568337" lon="8.385637" />
      <trkpt lat="46.568060" lon="8.383700" />
      <trkpt lat="46.567782" lon="8.381762" />
      <trkpt lat="46.567505" lon="8.379825" />
      <trkpt lat="46.567228" lon="8.377887" />
      <trkpt lat="46.566950" lon="8.375950" />
      <trkpt lat="46.566672" lon="8.374012" />
      <trkpt lat="46.566395" lon="8.372075" />
      <trkpt lat="46.566117" lon="8.370138" />
      <trkpt lat="46.565840" lon="8.368200" />
      <trkpt lat="46.565562" lon="8.366262" />
      <trkpt lat="46.565285" lon="8.364325" />
      <trkpt lat="46.565008" lon="8.362387" />
      <trkpt lat="46.564730" lon="8.360450" />
      <trkpt lat="46.564453" lon="8.358512" />
      <trkpt lat="46.564175" lon="8.356575" />
      <trkpt lat="46.563897" lon="8.354637" />
      <trkpt lat="46.563620" lon="8.352700" />
      <trkpt lat="46.563342" lon="8.350763" />
      <trkpt lat="46.563065" lon="8.348825" />
      <trkpt lat="46.562787" lon="8.346887" />
      <trkpt lat="46.562510" lon="8.344950" />
      <trkpt lat="46.562233" lon="8.343012" />
      <trkpt lat="46.561955" lon="8.341075" />
      <trkpt lat="46.561678" lon="8.339137" />
      <trkpt lat="46.561400" lon="8.337200" />
      <trkpt lat="46.561380" lon="8.337192" />
      <trkpt lat="46.561360" lon="8.337185" />
      <trkpt lat="46.561340" lon="8.337177" />
      <trkpt lat="46.561320" lon="8.337170" />
      <trkpt lat="46.561300" lon="8.337162" />
      <trkpt lat="46.561280" lon="8.337155" />
      <trkpt lat="46.561260" lon="8.337147" />
      <trkpt lat="46.561240" lon="8.337140" />
      <trkpt lat="46.561220" lon="8.337132" />
      <trkpt lat="46.561200" lon="8.337125" />
      <trkpt lat="46.561180" lon="8.337117" />
      <trkpt lat="46.561160" lon="8.337110" />
      <trkpt lat="46.561140" lon="8.337103" />
      <trkpt lat="46.561120" lon="8.337095" />
      <trkpt lat="46.561100" lon="8.337087" />
      <trkpt lat="46.561080" lon="8.337080" />
      <trkpt lat="46.561060" lon="8.337072" />
      <trkpt lat="46.561040" lon="8.337065" />
      <trkpt lat="46.561020" lon="8.337058" />
      <trkpt lat="46.561000" lon="8.337050" />
      <trkpt lat="46.560980" lon="8.337042" />
      <trkpt lat="46.560960" lon="8.337035" />
      <trkpt lat="46.560940" lon="8.337027" />
      <trkpt lat="46.560920" lon="8.337020" />
      <trkpt lat="46.560900" lon="8.337013" />
      <trkpt lat="46.560880" lon="8.337005" />
      <trkpt lat="46.560860" lon="8.336997" />
      <trkpt lat="46.560840" lon="8.336990" />
      <trkpt lat="46.560820" lon="8.336982" />
      <trkpt lat="46.560800" lon="8.336975" />
      <trkpt lat="46.560780" lon="8.336968" />
      <trkpt lat="46.560760" lon="8.336960" />
      <trkpt lat="46.560740" lon="8.336953" />
      <trkpt lat="46.560720" lon="8.336945" />
      <trkpt lat="46.560700" lon="8.336937" />
      <trkpt lat="46.560680" lon="8.336930" />
      <trkpt lat="46.560660" lon="8.336923" />
      <trkpt lat="46.560640" lon="8.336915" />
      <trkpt lat="46.560620" lon="8.336908" />
      <trkpt lat="46.560600" lon="8.336900" />
      <trkpt lat="46.564475" lon="8.334380" />
      <trkpt lat="46.568350" lon="8.331860" />
      <trkpt lat="46.572225" lon="8.329340" />
      <trkpt lat="46.576100" lon="8.326820" />
      <trkpt lat="46.579975" lon="8.324300" />
      <trkpt lat="46.583850" lon="8.321780" />
      <trkpt lat="46.587725" lon="8.319260" />
      <trkpt lat="46.591600" lon="8.316740" />
      <trkpt lat="46.595475" lon="8.314220" />
      <trkpt lat="46.599350" lon="8.311700" />
      <trkpt lat="46.603225" lon="8.309180" />
      <trkpt lat="46.607100" lon="8.306660" />
      <trkpt lat="46.610975" lon="8.304140" />
      <trkpt lat="46.614850" lon="8.301620" />
      <trkpt lat="46.618725" lon="8.299100" />
      <trkpt lat="46.622600" lon="8.296580" />
      <trkpt lat="46.626475" lon="8.294060" />
      <trkpt lat="46.630350" lon="8.291540" />
      <trkpt lat="46.634225" lon="8.289020" />
      <trkpt lat="46.638100" lon="8.286500" />
      <trkpt lat="46.641975" lon="8.283980" />
      <trkpt lat="46.645850" lon="8.281460" />
      <trkpt lat="46.649725" lon="8.278940" />
      <trkpt lat="46.653600" lon="8.276420" />
      <trkpt lat="46.657475" lon="8.273900" />
      <trkpt lat="46.661350" lon="8.271380" />
      <trkpt lat="46.665225" lon="8.268860" />
      <trkpt lat="46.669100" lon="8.266340" />
      <trkpt lat="46.672975" lon="8.263820" />
      <trkpt lat="46.676850" lon="8.261300" />
      <trkpt lat="46.680725" lon="8.258780" />
      <trkpt lat="46.684600" lon="8.256260" />
      <trkpt lat="46.688475" lon="8.253740" />
      <trkpt lat="46.692350" lon="8.251220" />
      <trkpt lat="46.696225" lon="8.248700" />
      <trkpt lat="46.700100" lon="8.246180" />
      <trkpt lat="46.703975" lon="8.243660" />
      <trkpt lat="46.707850" lon="8.241140" />
      <trkpt lat="46.711725" lon="8.238620" />
      <trkpt lat="46.715600" lon="8.236100" />
      <trkpt lat="46.715898" lon="8.241330" />
      <trkpt lat="46.716195" lon="8.246560" />
      <trkpt lat="46.716493" lon="8.251790" />
      <trkpt lat="46.716790" lon="8.257020" />
      <trkpt lat="46.717088" lon="8.262250" />
      <trkpt lat="46.717385" lon="8.267480" />
      <trkpt lat="46.717683" lon="8.272710" />
      <trkpt lat="46.717980" lon="8.277940" />
      <trkpt lat="46.718277" lon="8.283170" />
      <trkpt lat="46.718575" lon="8.288400" />
      <trkpt lat="46.718873" lon="8.293630" />
      <trkpt lat="46.719170" lon="8.298860" />
      <trkpt lat="46.719468" lon="8.304090" />
      <trkpt lat="46.719765" lon="8.309320" />
      <trkpt lat="46.720062" lon="8.314550" />
      <trkpt lat="46.720360" lon="8.319780" />
      <trkpt lat="46.720658" lon="8.325010" />
      <trkpt lat="46.720955" lon="8.330240" />
      <trkpt lat="46.721252" lon="8.335470" />
      <trkpt lat="46.721550" lon="8.340700" />
      <trkpt lat="46.721848" lon="8.345930" />
      <trkpt lat="46.722145" lon="8.351160" />
      <trkpt lat="46.722442" lon="8.356390" />
      <trkpt lat="46.722740" lon="8.361620" />
      <trkpt lat="46.723038" lon="8.366850" />
      <trkpt lat="46.723335" lon="8.372080" />
      <trkpt lat="46.723633" lon="8.377310" />
      <trkpt lat="46.723930" lon="8.382540" />
      <trkpt lat="46.724227" lon="8.387770" />
      <trkpt lat="46.724525" lon="8.393000" />
      <trkpt lat="46.724823" lon="8.398230" />
      <trkpt lat="46.725120" lon="8.403460" />
      <trkpt lat="46.725417" lon="8.408690" />
      <trkpt lat="46.725715" lon="8.413920" />
      <trkpt lat="46.726012" lon="8.419150" />
      <trkpt lat="46.726310" lon="8.424380" />
      <trkpt lat="46.726608" lon="8.429610" />
      <trkpt lat="46.726905" lon="8.434840" />
      <trkpt lat="46.727202" lon="8.440070" />
      <trkpt lat="46.727500" lon="8.445300" />
      <trkpt lat="46.727722" lon="8.449890" />
      <trkpt lat="46.727945" lon="8.454480" />
      <trkpt lat="46.728167" lon="8.459070" />
      <trkpt lat="46.728390" lon="8.463660" />
      <trkpt lat="46.728612" lon="8.468250" />
      <trkpt lat="46.728835" lon="8.472840" />
      <trkpt lat="46.729058" lon="8.477430" />
      <trkpt lat="46.729280" lon="8.482020" />
      <trkpt lat="46.729503" lon="8.486610" />
      <trkpt lat="46.729725" lon="8.491200" />
      <trkpt lat="46.729948" lon="8.495790" />
      <trkpt lat="46.730170" lon="8.500380" />
      <trkpt lat="46.730393" lon="8.504970" />
      <trkpt lat="46.730615" lon="8.509560" />
      <trkpt lat="46.730837" lon="8.514150" />
      <trkpt lat="46.731060" lon="8.518740" />
      <trkpt lat="46.731282" lon="8.523330" />
      <trkpt lat="46.731505" lon="8.527920" />
      <trkpt lat="46.731727" lon="8.532510" />
      <trkpt lat="46.731950" lon="8.537100" />
      <trkpt lat="46.732173" lon="8.541690" />
      <trkpt lat="46.732395" lon="8.546280" />
      <trkpt lat="46.732618" lon="8.550870" />
      <trkpt lat="46.732840" lon="8.555460" />
      <trkpt lat="46.733063" lon="8.560050" />
      <trkpt lat="46.733285" lon="8.564640" />
      <trkpt lat="46.733508" lon="8.569230" />
      <trkpt lat="46.733730" lon="8.573820" />
      <trkpt lat="46.733953" lon="8.578410" />
      <trkpt lat="46.734175" lon="8.583000" />
      <trkpt lat="46.734398" lon="8.587590" />
      <trkpt lat="46.734620" lon="8.592180" />
      <trkpt lat="46.734842" lon="8.596770" />
      <trkpt lat="46.735065" lon="8.601360" />
      <trkpt lat="46.735288" lon="8.605950" />
      <trkpt lat="46.735510" lon="8.610540" />
      <trkpt lat="46.735733" lon="8.615130" />
      <trkpt lat="46.735955" lon="8.619720" />
      <trkpt lat="46.736178" lon="8.624310" />
      <trkpt lat="46.736400" lon="8.628900" />
      <trkpt lat="46.735148" lon="8.628037" />
      <trkpt lat="46.733895" lon="8.627175" />
      <trkpt lat="46.732643" lon="8.626312" />
      <trkpt lat="46.731390" lon="8.625450" />
      <trkpt lat="46.730138" lon="8.624588" />
      <trkpt lat="46.728885" lon="8.623725" />
      <trkpt lat="46.727633" lon="8.622863" />
      <trkpt lat="46.726380" lon="8.622000" />
      <trkpt lat="46.725128" lon="8.621137" />
      <trkpt lat="46.723875" lon="8.620275" />
      <trkpt lat="46.722622" lon="8.619412" />
      <trkpt lat="46.721370" lon="8.618550" />
      <trkpt lat="46.720118" lon="8.617688" />
      <trkpt lat="46.718865" lon="8.616825" />
      <trkpt lat="46.717613" lon="8.615963" />
      <trkpt lat="46.716360" lon="8.615100" />
      <trkpt lat="46.715108" lon="8.614237" />
      <trkpt lat="46.713855" lon="8.613375" />
      <trkpt lat="46.712603" lon="8.612512" />
      <trkpt lat="46.711350" lon="8.611650" />
      <trkpt lat="46.710098" lon="8.610788" />
      <trkpt lat="46.708845" lon="8.609925" />
      <trkpt lat="46.707593" lon="8.609063" />
      <trkpt lat="46.706340" lon="8.608200" />
      <trkpt lat="46.705088" lon="8.607337" />
      <trkpt lat="46.703835" lon="8.606475" />
      <trkpt lat="46.702583" lon="8.605612" />
      <trkpt lat="46.701330" lon="8.604750" />
      <trkpt lat="46.700078" lon="8.603888" />
      <trkpt lat="46.698825" lon="8.603025" />
      <trkpt lat="46.697572" lon="8.602163" />
      <trkpt lat="46.696320" lon="8.601300" />
      <trkpt lat="46.695068" lon="8.600437" />
      <trkpt lat="46.693815" lon="8.599575" />
      <trkpt lat="46.692563" lon="8.598712" />
      <trkpt lat="46.691310" lon="8.597850" />
      <trkpt lat="46.690058" lon="8.596988" />
      <trkpt lat="46.688805" lon="8.596125" />
      <trkpt lat="46.687553" lon="8.595263" />
      <trkpt lat="46.686300" lon="8.594400" />
    </trkseg>
  </trk>
</gpx>
