<?xml version="1.0" encoding="UTF-8"?>
<gpx version="1.1" creator="SML Moto — example generator"
     xmlns="http://www.topografix.com/GPX/1/1"
     xmlns:xsi="http://www.w3.org/2001/XMLSchema-instance"
     xsi:schemaLocation="http://www.topografix.com/GPX/1/1 http://www.topografix.com/GPX/1/1/gpx.xsd">
  <metadata>
    <name>Col de la Bonette — track</name>
    <desc>UKAZKOVY OBSAH — priamkova interpolacia medzi priesmykmi, nie skutocna cesta. Sluzi na test doručovania, nie na navigaciu.</desc>
  </metadata>
  <trk>
    <name>Col de la Bonette</name>
    <trkseg>
      <trkpt lat="44.384000" lon="6.654000" />
      <trkpt lat="44.384925" lon="6.655450" />
      <trkpt lat="44.385850" lon="6.656900" />
      <trkpt lat="44.386775" lon="6.658350" />
      <trkpt lat="44.387700" lon="6.659800" />
      <trkpt lat="44.388625" lon="6.661250" />
      <trkpt lat="44.389550" lon="6.662700" />
      <trkpt lat="44.390475" lon="6.664150" />
      <trkpt lat="44.391400" lon="6.665600" />
      <trkpt lat="44.392325" lon="6.667050" />
      <trkpt lat="44.393250" lon="6.668500" />
      <trkpt lat="44.394175" lon="6.669950" />
      <trkpt lat="44.395100" lon="6.671400" />
      <trkpt lat="44.396025" lon="6.672850" />
      <trkpt lat="44.396950" lon="6.674300" />
      <trkpt lat="44.397875" lon="6.675750" />
      <trkpt lat="44.398800" lon="6.677200" />
      <trkpt lat="44.399725" lon="6.678650" />
      <trkpt lat="44.400650" lon="6.680100" />
      <trkpt lat="44.401575" lon="6.681550" />
      <trkpt lat="44.402500" lon="6.683000" />
      <trkpt lat="44.403425" lon="6.684450" />
      <trkpt lat="44.404350" lon="6.685900" />
      <trkpt lat="44.405275" lon="6.687350" />
      <trkpt lat="44.406200" lon="6.688800" />
      <trkpt lat="44.407125" lon="6.690250" />
      <trkpt lat="44.408050" lon="6.691700" />
      <trkpt lat="44.408975" lon="6.693150" />
      <trkpt lat="44.409900" lon="6.694600" />
      <trkpt lat="44.410825" lon="6.696050" />
      <trkpt lat="44.411750" lon="6.697500" />
      <trkpt lat="44.412675" lon="6.698950" />
      <trkpt lat="44.413600" lon="6.700400" />
      <trkpt lat="44.414525" lon="6.701850" />
      <trkpt lat="44.415450" lon="6.703300" />
      <trkpt lat="44.416375" lon="6.704750" />
      <trkpt lat="44.417300" lon="6.706200" />
      <trkpt lat="44.418225" lon="6.707650" />
      <trkpt lat="44.419150" lon="6.709100" />
      <trkpt lat="44.420075" lon="6.710550" />
      <trkpt lat="44.421000" lon="6.712000" />
      <trkpt lat="44.419200" lon="6.714750" />
      <trkpt lat="44.417400" lon="6.717500" />
      <trkpt lat="44.415600" lon="6.720250" />
      <trkpt lat="44.413800" lon="6.723000" />
      <trkpt lat="44.412000" lon="6.725750" />
      <trkpt lat="44.410200" lon="6.728500" />
      <trkpt lat="44.408400" lon="6.731250" />
      <trkpt lat="44.406600" lon="6.734000" />
      <trkpt lat="44.404800" lon="6.736750" />
      <trkpt lat="44.403000" lon="6.739500" />
      <trkpt lat="44.401200" lon="6.742250" />
      <trkpt lat="44.399400" lon="6.745000" />
      <trkpt lat="44.397600" lon="6.747750" />
      <trkpt lat="44.395800" lon="6.750500" />
      <trkpt lat="44.394000" lon="6.753250" />
      <trkpt lat="44.392200" lon="6.756000" />
      <trkpt lat="44.390400" lon="6.758750" />
      <trkpt lat="44.388600" lon="6.761500" />
      <trkpt lat="44.386800" lon="6.764250" />
      <trkpt lat="44.385000" lon="6.767000" />
      <trkpt lat="44.383200" lon="6.769750" />
      <trkpt lat="44.381400" lon="6.772500" />
      <trkpt lat="44.379600" lon="6.775250" />
      <trkpt lat="44.377800" lon="6.778000" />
      <trkpt lat="44.376000" lon="6.780750" />
      <trkpt lat="44.374200" lon="6.783500" />
      <trkpt lat="44.372400" lon="6.786250" />
      <trkpt lat="44.370600" lon="6.789000" />
      <trkpt lat="44.368800" lon="6.791750" />
      <trkpt lat="44.367000" lon="6.794500" />
      <trkpt lat="44.365200" lon="6.797250" />
      <trkpt lat="44.363400" lon="6.800000" />
      <trkpt lat="44.361600" lon="6.802750" />
      <trkpt lat="44.359800" lon="6.805500" />
      <trkpt lat="44.358000" lon="6.808250" />
      <trkpt lat="44.356200" lon="6.811000" />
      <trkpt lat="44.354400" lon="6.813750" />
      <trkpt lat="44.352600" lon="6.816500" />
      <trkpt lat="44.350800" lon="6.819250" />
      <trkpt lat="44.349000" lon="6.822000" />
      <trkpt lat="44.347600" lon="6.821575" />
      <trkpt lat="44.346200" lon="6.821150" />
      <trkpt lat="44.344800" lon="6.820725" />
      <trkpt lat="44.343400" lon="6.820300" />
      <trkpt lat="44.342000" lon="6.819875" />
      <trkpt lat="44.340600" lon="6.819450" />
      <trkpt lat="44.339200" lon="6.819025" />
      <trkpt lat="44.337800" lon="6.818600" />
      <trkpt lat="44.336400" lon="6.818175" />
      <trkpt lat="44.335000" lon="6.817750" />
      <trkpt lat="44.333600" lon="6.817325" />
      <trkpt lat="44.332200" lon="6.816900" />
      <trkpt lat="44.330800" lon="6.816475" />
      <trkpt lat="44.329400" lon="6.816050" />
      <trkpt lat="44.328000" lon="6.815625" />
      <trkpt lat="44.326600" lon="6.815200" />
      <trkpt lat="44.325200" lon="6.814775" />
      <trkpt lat="44.323800" lon="6.814350" />
      <trkpt lat="44.322400" lon="6.813925" />
      <trkpt lat="44.321000" lon="6.813500" />
      <trkpt lat="44.319600" lon="6.813075" />
      <trkpt lat="44.318200" lon="6.812650" />
      <trkpt lat="44.316800" lon="6.812225" />
      <trkpt lat="44.315400" lon="6.811800" />
      <trkpt lat="44.314000" lon="6.811375" />
      <trkpt lat="44.312600" lon="6.810950" />
      <trkpt lat="44.311200" lon="6.810525" />
      <trkpt lat="44.309800" lon="6.810100" />
      <trkpt lat="44.308400" lon="6.809675" />
      <trkpt lat="44.307000" lon="6.809250" />
      <trkpt lat="44.305600" lon="6.808825" />
      <trkpt lat="44.304200" lon="6.808400" />
      <trkpt lat="44.302800" lon="6.807975" />
      <trkpt lat="44.301400" lon="6.807550" />
      <trkpt lat="44.300000" lon="6.807125" />
      <trkpt lat="44.298600" lon="6.806700" />
      <trkpt lat="44.297200" lon="6.806275" />
      <trkpt lat="44.295800" lon="6.805850" />
      <trkpt lat="44.294400" lon="6.805425" />
      <trkpt lat="44.293000" lon="6.805000" />
      <trkpt lat="44.292275" lon="6.807625" />
      <trkpt lat="44.291550" lon="6.810250" />
      <trkpt lat="44.290825" lon="6.812875" />
      <trkpt lat="44.290100" lon="6.815500" />
      <trkpt lat="44.289375" lon="6.818125" />
      <trkpt lat="44.288650" lon="6.820750" />
      <trkpt lat="44.287925" lon="6.823375" />
      <trkpt lat="44.287200" lon="6.826000" />
      <trkpt lat="44.286475" lon="6.828625" />
      <trkpt lat="44.285750" lon="6.831250" />
      <trkpt lat="44.285025" lon="6.833875" />
      <trkpt lat="44.284300" lon="6.836500" />
      <trkpt lat="44.283575" lon="6.839125" />
      <trkpt lat="44.282850" lon="6.841750" />
      <trkpt lat="44.282125" lon="6.844375" />
      <trkpt lat="44.281400" lon="6.847000" />
      <trkpt lat="44.280675" lon="6.849625" />
      <trkpt lat="44.279950" lon="6.852250" />
      <trkpt lat="44.279225" lon="6.854875" />
      <trkpt lat="44.278500" lon="6.857500" />
      <trkpt lat="44.277775" lon="6.860125" />
      <trkpt lat="44.277050" lon="6.862750" />
      <trkpt lat="44.276325" lon="6.865375" />
      <trkpt lat="44.275600" lon="6.868000" />
      <trkpt lat="44.274875" lon="6.870625" />
      <trkpt lat="44.274150" lon="6.873250" />
      <trkpt lat="44.273425" lon="6.875875" />
      <trkpt lat="44.272700" lon="6.878500" />
      <trkpt lat="44.271975" lon="6.881125" />
      <trkpt lat="44.271250" lon="6.883750" />
      <trkpt lat="44.270525" lon="6.886375" />
      <trkpt lat="44.269800" lon="6.889000" />
      <trkpt lat="44.269075" lon="6.891625" />
      <trkpt lat="44.268350" lon="6.894250" />
      <trkpt lat="44.267625" lon="6.896875" />
      <trkpt lat="44.266900" lon="6.899500" />
      <trkpt lat="44.266175" lon="6.902125" />
      <trkpt lat="44.265450" lon="6.904750" />
      <trkpt lat="44.264725" lon="6.907375" />
      <trkpt lat="44.264000" lon="6.910000" />
      <trkpt lat="44.262375" lon="6.913025" />
      <trkpt lat="44.260750" lon="6.916050" />
      <trkpt lat="44.259125" lon="6.919075" />
      <trkpt lat="44.257500" lon="6.922100" />
      <trkpt lat="44.255875" lon="6.925125" />
      <trkpt lat="44.254250" lon="6.928150" />
      <trkpt lat="44.252625" lon="6.931175" />
      <trkpt lat="44.251000" lon="6.934200" />
      <trkpt lat="44.249375" lon="6.937225" />
      <trkpt lat="44.247750" lon="6.940250" />
      <trkpt lat="44.246125" lon="6.943275" />
      <trkpt lat="44.244500" lon="6.946300" />
      <trkpt lat="44.242875" lon="6.949325" />
      <trkpt lat="44.241250" lon="6.952350" />
      <trkpt lat="44.239625" lon="6.955375" />
      <trkpt lat="44.238000" lon="6.958400" />
      <trkpt lat="44.236375" lon="6.961425" />
      <trkpt lat="44.234750" lon="6.964450" />
      <trkpt lat="44.233125" lon="6.967475" />
      <trkpt lat="44.231500" lon="6.970500" />
      <trkpt lat="44.229875" lon="6.973525" />
      <trkpt lat="44.228250" lon="6.976550" />
      <trkpt lat="44.226625" lon="6.979575" />
      <trkpt lat="44.225000" lon="6.982600" />
      <trkpt lat="44.223375" lon="6.985625" />
      <trkpt lat="44.221750" lon="6.988650" />
      <trkpt lat="44.220125" lon="6.991675" />
      <trkpt lat="44.218500" lon="6.994700" />
      <trkpt lat="44.216875" lon="6.997725" />
      <trkpt lat="44.215250" lon="7.000750" />
      <trkpt lat="44.213625" lon="7.003775" />
      <trkpt lat="44.212000" lon="7.006800" />
      <trkpt lat="44.210375" lon="7.009825" />
      <trkpt lat="44.208750" lon="7.012850" />
      <trkpt lat="44.207125" lon="7.015875" />
      <trkpt lat="44.205500" lon="7.018900" />
      <trkpt lat="44.203875" lon="7.021925" />
      <trkpt lat="44.202250" lon="7.024950" />
      <trkpt lat="44.200625" lon="7.027975" />
      <trkpt lat="44.199000" lon="7.031000" />
    </trkseg>
  </trk>
</gpx>
