<?xml version="1.0" encoding="UTF-8"?>
<gpx version="1.1" creator="SML Moto — example generator"
     xmlns="http://www.topografix.com/GPX/1/1"
     xmlns:xsi="http://www.w3.org/2001/XMLSchema-instance"
     xsi:schemaLocation="http://www.topografix.com/GPX/1/1 http://www.topografix.com/GPX/1/1/gpx.xsd">
  <metadata>
    <name>Furka · Grimsel · Susten — track</name>
    <desc>UKAZKOVY OBSAH — priamkova interpolacia medzi priesmykmi, nie skutocna cesta. Sluzi na test doručovania, nie na navigaciu.</desc>
  </metadata>
  <trk>
    <name>Furka · Grimsel · Susten</name>
    <trkseg>
      <trkpt lat="47.040000" lon="9.067000" />
      <trkpt lat="47.036975" lon="9.065575" />
      <trkpt lat="47.033950" lon="9.064150" />
      <trkpt lat="47.030925" lon="9.062725" />
      <trkpt lat="47.027900" lon="9.061300" />
      <trkpt lat="47.024875" lon="9.059875" />
      <trkpt lat="47.021850" lon="9.058450" />
      <trkpt lat="47.018825" lon="9.057025" />
      <trkpt lat="47.015800" lon="9.055600" />
      <trkpt lat="47.012775" lon="9.054175" />
      <trkpt lat="47.009750" lon="9.052750" />
      <trkpt lat="47.006725" lon="9.051325" />
      <trkpt lat="47.003700" lon="9.049900" />
      <trkpt lat="47.000675" lon="9.048475" />
      <trkpt lat="46.997650" lon="9.047050" />
      <trkpt lat="46.994625" lon="9.045625" />
      <trkpt lat="46.991600" lon="9.044200" />
      <trkpt lat="46.988575" lon="9.042775" />
      <trkpt lat="46.985550" lon="9.041350" />
      <trkpt lat="46.982525" lon="9.039925" />
      <trkpt lat="46.979500" lon="9.038500" />
      <trkpt lat="46.976475" lon="9.037075" />
      <trkpt lat="46.973450" lon="9.035650" />
      <trkpt lat="46.970425" lon="9.034225" />
      <trkpt lat="46.967400" lon="9.032800" />
      <trkpt lat="46.964375" lon="9.031375" />
      <trkpt lat="46.961350" lon="9.029950" />
      <trkpt lat="46.958325" lon="9.028525" />
      <trkpt lat="46.955300" lon="9.027100" />
      <trkpt lat="46.952275" lon="9.025675" />
      <trkpt lat="46.949250" lon="9.024250" />
      <trkpt lat="46.946225" lon="9.022825" />
      <trkpt lat="46.943200" lon="9.021400" />
      <trkpt lat="46.940175" lon="9.019975" />
      <trkpt lat="46.937150" lon="9.018550" />
      <trkpt lat="46.934125" lon="9.017125" />
      <trkpt lat="46.931100" lon="9.015700" />
      <trkpt lat="46.928075" lon="9.014275" />
      <trkpt lat="46.925050" lon="9.012850" />
      <trkpt lat="46.922025" lon="9.011425" />
      <trkpt lat="46.919000" lon="9.010000" />
      <trkpt lat="46.918050" lon="9.000850" />
      <trkpt lat="46.917100" lon="8.991700" />
      <trkpt lat="46.916150" lon="8.982550" />
      <trkpt lat="46.915200" lon="8.973400" />
      <trkpt lat="46.914250" lon="8.964250" />
      <trkpt lat="46.913300" lon="8.955100" />
      <trkpt lat="46.912350" lon="8.945950" />
      <trkpt lat="46.911400" lon="8.936800" />
      <trkpt lat="46.910450" lon="8.927650" />
      <trkpt lat="46.909500" lon="8.918500" />
      <trkpt lat="46.908550" lon="8.909350" />
      <trkpt lat="46.907600" lon="8.900200" />
      <trkpt lat="46.906650" lon="8.891050" />
      <trkpt lat="46.905700" lon="8.881900" />
      <trkpt lat="46.904750" lon="8.872750" />
      <trkpt lat="46.903800" lon="8.863600" />
      <trkpt lat="46.902850" lon="8.854450" />
      <trkpt lat="46.901900" lon="8.845300" />
      <trkpt lat="46.900950" lon="8.836150" />
      <trkpt lat="46.900000" lon="8.827000" />
      <trkpt lat="46.899050" lon="8.817850" />
      <trkpt lat="46.898100" lon="8.808700" />
      <trkpt lat="46.897150" lon="8.799550" />
      <trkpt lat="46.896200" lon="8.790400" />
      <trkpt lat="46.895250" lon="8.781250" />
      <trkpt lat="46.894300" lon="8.772100" />
      <trkpt lat="46.893350" lon="8.762950" />
      <trkpt lat="46.892400" lon="8.753800" />
      <trkpt lat="46.891450" lon="8.744650" />
      <trkpt lat="46.890500" lon="8.735500" />
      <trkpt lat="46.889550" lon="8.726350" />
      <trkpt lat="46.888600" lon="8.717200" />
      <trkpt lat="46.887650" lon="8.708050" />
      <trkpt lat="46.886700" lon="8.698900" />
      <trkpt lat="46.885750" lon="8.689750" />
      <trkpt lat="46.884800" lon="8.680600" />
      <trkpt lat="46.883850" lon="8.671450" />
      <trkpt lat="46.882900" lon="8.662300" />
      <trkpt lat="46.881950" lon="8.653150" />
      <trkpt lat="46.881000" lon="8.644000" />
      <trkpt lat="46.888250" lon="8.630450" />
      <trkpt lat="46.895500" lon="8.616900" />
      <trkpt lat="46.902750" lon="8.603350" />
      <trkpt lat="46.910000" lon="8.589800" />
      <trkpt lat="46.917250" lon="8.576250" />
      <trkpt lat="46.924500" lon="8.562700" />
      <trkpt lat="46.931750" lon="8.549150" />
      <trkpt lat="46.939000" lon="8.535600" />
      <trkpt lat="46.946250" lon="8.522050" />
      <trkpt lat="46.953500" lon="8.508500" />
      <trkpt lat="46.960750" lon="8.494950" />
      <trkpt lat="46.968000" lon="8.481400" />
      <trkpt lat="46.975250" lon="8.467850" />
      <trkpt lat="46.982500" lon="8.454300" />
      <trkpt lat="46.989750" lon="8.440750" />
      <trkpt lat="46.997000" lon="8.427200" />
      <trkpt lat="47.004250" lon="8.413650" />
      <trkpt lat="47.011500" lon="8.400100" />
      <trkpt lat="47.018750" lon="8.386550" />
      <trkpt lat="47.026000" lon="8.373000" />
      <trkpt lat="47.033250" lon="8.359450" />
      <trkpt lat="47.040500" lon="8.345900" />
      <trkpt lat="47.047750" lon="8.332350" />
      <trkpt lat="47.055000" lon="8.318800" />
      <trkpt lat="47.062250" lon="8.305250" />
      <trkpt lat="47.069500" lon="8.291700" />
      <trkpt lat="47.076750" lon="8.278150" />
      <trkpt lat="47.084000" lon="8.264600" />
      <trkpt lat="47.091250" lon="8.251050" />
      <trkpt lat="47.098500" lon="8.237500" />
      <trkpt lat="47.105750" lon="8.223950" />
      <trkpt lat="47.113000" lon="8.210400" />
      <trkpt lat="47.120250" lon="8.196850" />
      <trkpt lat="47.127500" lon="8.183300" />
      <trkpt lat="47.134750" lon="8.169750" />
      <trkpt lat="47.142000" lon="8.156200" />
      <trkpt lat="47.149250" lon="8.142650" />
      <trkpt lat="47.156500" lon="8.129100" />
      <trkpt lat="47.163750" lon="8.115550" />
      <trkpt lat="47.171000" lon="8.102000" />
      <trkpt lat="47.159925" lon="8.103975" />
      <trkpt lat="47.148850" lon="8.105950" />
      <trkpt lat="47.137775" lon="8.107925" />
      <trkpt lat="47.126700" lon="8.109900" />
      <trkpt lat="47.115625" lon="8.111875" />
      <trkpt lat="47.104550" lon="8.113850" />
      <trkpt lat="47.093475" lon="8.115825" />
      <trkpt lat="47.082400" lon="8.117800" />
      <trkpt lat="47.071325" lon="8.119775" />
      <trkpt lat="47.060250" lon="8.121750" />
      <trkpt lat="47.049175" lon="8.123725" />
      <trkpt lat="47.038100" lon="8.125700" />
      <trkpt lat="47.027025" lon="8.127675" />
      <trkpt lat="47.015950" lon="8.129650" />
      <trkpt lat="47.004875" lon="8.131625" />
      <trkpt lat="46.993800" lon="8.133600" />
      <trkpt lat="46.982725" lon="8.135575" />
      <trkpt lat="46.971650" lon="8.137550" />
      <trkpt lat="46.960575" lon="8.139525" />
      <trkpt lat="46.949500" lon="8.141500" />
      <trkpt lat="46.938425" lon="8.143475" />
      <trkpt lat="46.927350" lon="8.145450" />
      <trkpt lat="46.916275" lon="8.147425" />
      <trkpt lat="46.905200" lon="8.149400" />
      <trkpt lat="46.894125" lon="8.151375" />
      <trkpt lat="46.883050" lon="8.153350" />
      <trkpt lat="46.871975" lon="8.155325" />
      <trkpt lat="46.860900" lon="8.157300" />
      <trkpt lat="46.849825" lon="8.159275" />
      <trkpt lat="46.838750" lon="8.161250" />
      <trkpt lat="46.827675" lon="8.163225" />
      <trkpt lat="46.816600" lon="8.165200" />
      <trkpt lat="46.805525" lon="8.167175" />
      <trkpt lat="46.794450" lon="8.169150" />
      <trkpt lat="46.783375" lon="8.171125" />
      <trkpt lat="46.772300" lon="8.173100" />
      <trkpt lat="46.761225" lon="8.175075" />
      <trkpt lat="46.750150" lon="8.177050" />
      <trkpt lat="46.739075" lon="8.179025" />
      <trkpt lat="46.728000" lon="8.181000" />
      <trkpt lat="46.725700" lon="8.191325" />
      <trkpt lat="46.723400" lon="8.201650" />
      <trkpt lat="46.721100" lon="8.211975" />
      <trkpt lat="46.718800" lon="8.222300" />
      <trkpt lat="46.716500" lon="8.232625" />
      <trkpt lat="46.714200" lon="8.242950" />
      <trkpt lat="46.711900" lon="8.253275" />
      <trkpt lat="46.709600" lon="8.263600" />
      <trkpt lat="46.707300" lon="8.273925" />
      <trkpt lat="46.705000" lon="8.284250" />
      <trkpt lat="46.702700" lon="8.294575" />
      <trkpt lat="46.700400" lon="8.304900" />
      <trkpt lat="46.698100" lon="8.315225" />
      <trkpt lat="46.695800" lon="8.325550" />
      <trkpt lat="46.693500" lon="8.335875" />
      <trkpt lat="46.691200" lon="8.346200" />
      <trkpt lat="46.688900" lon="8.356525" />
      <trkpt lat="46.686600" lon="8.366850" />
      <trkpt lat="46.684300" lon="8.377175" />
      <trkpt lat="46.682000" lon="8.387500" />
      <trkpt lat="46.679700" lon="8.397825" />
      <trkpt lat="46.677400" lon="8.408150" />
      <trkpt lat="46.675100" lon="8.418475" />
      <trkpt lat="46.672800" lon="8.428800" />
      <trkpt lat="46.670500" lon="8.439125" />
      <trkpt lat="46.668200" lon="8.449450" />
      <trkpt lat="46.665900" lon="8.459775" />
      <trkpt lat="46.663600" lon="8.470100" />
      <trkpt lat="46.661300" lon="8.480425" />
      <trkpt lat="46.659000" lon="8.490750" />
      <trkpt lat="46.656700" lon="8.501075" />
      <trkpt lat="46.654400" lon="8.511400" />
      <trkpt lat="46.652100" lon="8.521725" />
      <trkpt lat="46.649800" lon="8.532050" />
      <trkpt lat="46.647500" lon="8.542375" />
      <trkpt lat="46.645200" lon="8.552700" />
      <trkpt lat="46.642900" lon="8.563025" />
      <trkpt lat="46.640600" lon="8.573350" />
      <trkpt lat="46.638300" lon="8.583675" />
      <trkpt lat="46.636000" lon="8.594000" />
      <trkpt lat="46.637850" lon="8.584875" />
      <trkpt lat="46.639700" lon="8.575750" />
      <trkpt lat="46.641550" lon="8.566625" />
      <trkpt lat="46.643400" lon="8.557500" />
      <trkpt lat="46.645250" lon="8.548375" />
      <trkpt lat="46.647100" lon="8.539250" />
      <trkpt lat="46.648950" lon="8.530125" />
      <trkpt lat="46.650800" lon="8.521000" />
      <trkpt lat="46.652650" lon="8.511875" />
      <trkpt lat="46.654500" lon="8.502750" />
      <trkpt lat="46.656350" lon="8.493625" />
      <trkpt lat="46.658200" lon="8.484500" />
      <trkpt lat="46.660050" lon="8.475375" />
      <trkpt lat="46.661900" lon="8.466250" />
      <trkpt lat="46.663750" lon="8.457125" />
      <trkpt lat="46.665600" lon="8.448000" />
      <trkpt lat="46.667450" lon="8.438875" />
      <trkpt lat="46.669300" lon="8.429750" />
      <trkpt lat="46.671150" lon="8.420625" />
      <trkpt lat="46.673000" lon="8.411500" />
      <trkpt lat="46.674850" lon="8.402375" />
      <trkpt lat="46.676700" lon="8.393250" />
      <trkpt lat="46.678550" lon="8.384125" />
      <trkpt lat="46.680400" lon="8.375000" />
      <trkpt lat="46.682250" lon="8.365875" />
      <trkpt lat="46.684100" lon="8.356750" />
      <trkpt lat="46.685950" lon="8.347625" />
      <trkpt lat="46.687800" lon="8.338500" />
      <trkpt lat="46.689650" lon="8.329375" />
      <trkpt lat="46.691500" lon="8.320250" />
      <trkpt lat="46.693350" lon="8.311125" />
      <trkpt lat="46.695200" lon="8.302000" />
      <trkpt lat="46.697050" lon="8.292875" />
      <trkpt lat="46.698900" lon="8.283750" />
      <trkpt lat="46.700750" lon="8.274625" />
      <trkpt lat="46.702600" lon="8.265500" />
      <trkpt lat="46.704450" lon="8.256375" />
      <trkpt lat="46.706300" lon="8.247250" />
      <trkpt lat="46.708150" lon="8.238125" />
      <trkpt lat="46.710000" lon="8.229000" />
      <trkpt lat="46.710450" lon="8.227800" />
      <trkpt lat="46.710900" lon="8.226600" />
      <trkpt lat="46.711350" lon="8.225400" />
      <trkpt lat="46.711800" lon="8.224200" />
      <trkpt lat="46.712250" lon="8.223000" />
      <trkpt lat="46.712700" lon="8.221800" />
      <trkpt lat="46.713150" lon="8.220600" />
      <trkpt lat="46.713600" lon="8.219400" />
      <trkpt lat="46.714050" lon="8.218200" />
      <trkpt lat="46.714500" lon="8.217000" />
      <trkpt lat="46.714950" lon="8.215800" />
      <trkpt lat="46.715400" lon="8.214600" />
      <trkpt lat="46.715850" lon="8.213400" />
      <trkpt lat="46.716300" lon="8.212200" />
      <trkpt lat="46.716750" lon="8.211000" />
      <trkpt lat="46.717200" lon="8.209800" />
      <trkpt lat="46.717650" lon="8.208600" />
      <trkpt lat="46.718100" lon="8.207400" />
      <trkpt lat="46.718550" lon="8.206200" />
      <trkpt lat="46.719000" lon="8.205000" />
      <trkpt lat="46.719450" lon="8.203800" />
      <trkpt lat="46.719900" lon="8.202600" />
      <trkpt lat="46.720350" lon="8.201400" />
      <trkpt lat="46.720800" lon="8.200200" />
      <trkpt lat="46.721250" lon="8.199000" />
      <trkpt lat="46.721700" lon="8.197800" />
      <trkpt lat="46.722150" lon="8.196600" />
      <trkpt lat="46.722600" lon="8.195400" />
      <trkpt lat="46.723050" lon="8.194200" />
      <trkpt lat="46.723500" lon="8.193000" />
      <trkpt lat="46.723950" lon="8.191800" />
      <trkpt lat="46.724400" lon="8.190600" />
      <trkpt lat="46.724850" lon="8.189400" />
      <trkpt lat="46.725300" lon="8.188200" />
      <trkpt lat="46.725750" lon="8.187000" />
      <trkpt lat="46.726200" lon="8.185800" />
      <trkpt lat="46.726650" lon="8.184600" />
      <trkpt lat="46.727100" lon="8.183400" />
      <trkpt lat="46.727550" lon="8.182200" />
      <trkpt lat="46.728000" lon="8.181000" />
    </trkseg>
  </trk>
</gpx>
