<?xml version="1.0" encoding="UTF-8"?>
<gpx version="1.1" creator="SML Moto — example generator"
     xmlns="http://www.topografix.com/GPX/1/1"
     xmlns:xsi="http://www.w3.org/2001/XMLSchema-instance"
     xsi:schemaLocation="http://www.topografix.com/GPX/1/1 http://www.topografix.com/GPX/1/1/gpx.xsd">
  <metadata>
    <name>Bernina Pass &amp; Maloja Pass — track</name>
    <desc>UKAZKOVY OBSAH — priamkova interpolacia medzi priesmykmi, nie skutocna cesta. Sluzi na test doručovania, nie na navigaciu.</desc>
  </metadata>
  <trk>
    <name>Bernina Pass &amp; Maloja Pass</name>
    <trkseg>
      <trkpt lat="46.850000" lon="9.533000" />
      <trkpt lat="46.846525" lon="9.534250" />
      <trkpt lat="46.843050" lon="9.535500" />
      <trkpt lat="46.839575" lon="9.536750" />
      <trkpt lat="46.836100" lon="9.538000" />
      <trkpt lat="46.832625" lon="9.539250" />
      <trkpt lat="46.829150" lon="9.540500" />
      <trkpt lat="46.825675" lon="9.541750" />
      <trkpt lat="46.822200" lon="9.543000" />
      <trkpt lat="46.818725" lon="9.544250" />
      <trkpt lat="46.815250" lon="9.545500" />
      <trkpt lat="46.811775" lon="9.546750" />
      <trkpt lat="46.808300" lon="9.548000" />
      <trkpt lat="46.804825" lon="9.549250" />
      <trkpt lat="46.801350" lon="9.550500" />
      <trkpt lat="46.797875" lon="9.551750" />
      <trkpt lat="46.794400" lon="9.553000" />
      <trkpt lat="46.790925" lon="9.554250" />
      <trkpt lat="46.787450" lon="9.555500" />
      <trkpt lat="46.783975" lon="9.556750" />
      <trkpt lat="46.780500" lon="9.558000" />
      <trkpt lat="46.777025" lon="9.559250" />
      <trkpt lat="46.773550" lon="9.560500" />
      <trkpt lat="46.770075" lon="9.561750" />
      <trkpt lat="46.766600" lon="9.563000" />
      <trkpt lat="46.763125" lon="9.564250" />
      <trkpt lat="46.759650" lon="9.565500" />
      <trkpt lat="46.756175" lon="9.566750" />
      <trkpt lat="46.752700" lon="9.568000" />
      <trkpt lat="46.749225" lon="9.569250" />
      <trkpt lat="46.745750" lon="9.570500" />
      <trkpt lat="46.742275" lon="9.571750" />
      <trkpt lat="46.738800" lon="9.573000" />
      <trkpt lat="46.735325" lon="9.574250" />
      <trkpt lat="46.731850" lon="9.575500" />
      <trkpt lat="46.728375" lon="9.576750" />
      <trkpt lat="46.724900" lon="9.578000" />
      <trkpt lat="46.721425" lon="9.579250" />
      <trkpt lat="46.717950" lon="9.580500" />
      <trkpt lat="46.714475" lon="9.581750" />
      <trkpt lat="46.711000" lon="9.583000" />
      <trkpt lat="46.705475" lon="9.585925" />
      <trkpt lat="46.699950" lon="9.588850" />
      <trkpt lat="46.694425" lon="9.591775" />
      <trkpt lat="46.688900" lon="9.594700" />
      <trkpt lat="46.683375" lon="9.597625" />
      <trkpt lat="46.677850" lon="9.600550" />
      <trkpt lat="46.672325" lon="9.603475" />
      <trkpt lat="46.666800" lon="9.606400" />
      <trkpt lat="46.661275" lon="9.609325" />
      <trkpt lat="46.655750" lon="9.612250" />
      <trkpt lat="46.650225" lon="9.615175" />
      <trkpt lat="46.644700" lon="9.618100" />
      <trkpt lat="46.639175" lon="9.621025" />
      <trkpt lat="46.633650" lon="9.623950" />
      <trkpt lat="46.628125" lon="9.626875" />
      <trkpt lat="46.622600" lon="9.629800" />
      <trkpt lat="46.617075" lon="9.632725" />
      <trkpt lat="46.611550" lon="9.635650" />
      <trkpt lat="46.606025" lon="9.638575" />
      <trkpt lat="46.600500" lon="9.641500" />
      <trkpt lat="46.594975" lon="9.644425" />
      <trkpt lat="46.589450" lon="9.647350" />
      <trkpt lat="46.583925" lon="9.650275" />
      <trkpt lat="46.578400" lon="9.653200" />
      <trkpt lat="46.572875" lon="9.656125" />
      <trkpt lat="46.567350" lon="9.659050" />
      <trkpt lat="46.561825" lon="9.661975" />
      <trkpt lat="46.556300" lon="9.664900" />
      <trkpt lat="46.550775" lon="9.667825" />
      <trkpt lat="46.545250" lon="9.670750" />
      <trkpt lat="46.539725" lon="9.673675" />
      <trkpt lat="46.534200" lon="9.676600" />
      <trkpt lat="46.528675" lon="9.679525" />
      <trkpt lat="46.523150" lon="9.682450" />
      <trkpt lat="46.517625" lon="9.685375" />
      <trkpt lat="46.512100" lon="9.688300" />
      <trkpt lat="46.506575" lon="9.691225" />
      <trkpt lat="46.501050" lon="9.694150" />
      <trkpt lat="46.495525" lon="9.697075" />
      <trkpt lat="46.490000" lon="9.700000" />
      <trkpt lat="46.487900" lon="9.699850" />
      <trkpt lat="46.485800" lon="9.699700" />
      <trkpt lat="46.483700" lon="9.699550" />
      <trkpt lat="46.481600" lon="9.699400" />
      <trkpt lat="46.479500" lon="9.699250" />
      <trkpt lat="46.477400" lon="9.699100" />
      <trkpt lat="46.475300" lon="9.698950" />
      <trkpt lat="46.473200" lon="9.698800" />
      <trkpt lat="46.471100" lon="9.698650" />
      <trkpt lat="46.469000" lon="9.698500" />
      <trkpt lat="46.466900" lon="9.698350" />
      <trkpt lat="46.464800" lon="9.698200" />
      <trkpt lat="46.462700" lon="9.698050" />
      <trkpt lat="46.460600" lon="9.697900" />
      <trkpt lat="46.458500" lon="9.697750" />
      <trkpt lat="46.456400" lon="9.697600" />
      <trkpt lat="46.454300" lon="9.697450" />
      <trkpt lat="46.452200" lon="9.697300" />
      <trkpt lat="46.450100" lon="9.697150" />
      <trkpt lat="46.448000" lon="9.697000" />
      <trkpt lat="46.445900" lon="9.696850" />
      <trkpt lat="46.443800" lon="9.696700" />
      <trkpt lat="46.441700" lon="9.696550" />
      <trkpt lat="46.439600" lon="9.696400" />
      <trkpt lat="46.437500" lon="9.696250" />
      <trkpt lat="46.435400" lon="9.696100" />
      <trkpt lat="46.433300" lon="9.695950" />
      <trkpt lat="46.431200" lon="9.695800" />
      <trkpt lat="46.429100" lon="9.695650" />
      <trkpt lat="46.427000" lon="9.695500" />
      <trkpt lat="46.424900" lon="9.695350" />
      <trkpt lat="46.422800" lon="9.695200" />
      <trkpt lat="46.420700" lon="9.695050" />
      <trkpt lat="46.418600" lon="9.694900" />
      <trkpt lat="46.416500" lon="9.694750" />
      <trkpt lat="46.414400" lon="9.694600" />
      <trkpt lat="46.412300" lon="9.694450" />
      <trkpt lat="46.410200" lon="9.694300" />
      <trkpt lat="46.408100" lon="9.694150" />
      <trkpt lat="46.406000" lon="9.694000" />
      <trkpt lat="46.403750" lon="9.689200" />
      <trkpt lat="46.401500" lon="9.684400" />
      <trkpt lat="46.399250" lon="9.679600" />
      <trkpt lat="46.397000" lon="9.674800" />
      <trkpt lat="46.394750" lon="9.670000" />
      <trkpt lat="46.392500" lon="9.665200" />
      <trkpt lat="46.390250" lon="9.660400" />
      <trkpt lat="46.388000" lon="9.655600" />
      <trkpt lat="46.385750" lon="9.650800" />
      <trkpt lat="46.383500" lon="9.646000" />
      <trkpt lat="46.381250" lon="9.641200" />
      <trkpt lat="46.379000" lon="9.636400" />
      <trkpt lat="46.376750" lon="9.631600" />
      <trkpt lat="46.374500" lon="9.626800" />
      <trkpt lat="46.372250" lon="9.622000" />
      <trkpt lat="46.370000" lon="9.617200" />
      <trkpt lat="46.367750" lon="9.612400" />
      <trkpt lat="46.365500" lon="9.607600" />
      <trkpt lat="46.363250" lon="9.602800" />
      <trkpt lat="46.361000" lon="9.598000" />
      <trkpt lat="46.358750" lon="9.593200" />
      <trkpt lat="46.356500" lon="9.588400" />
      <trkpt lat="46.354250" lon="9.583600" />
      <trkpt lat="46.352000" lon="9.578800" />
      <trkpt lat="46.349750" lon="9.574000" />
      <trkpt lat="46.347500" lon="9.569200" />
      <trkpt lat="46.345250" lon="9.564400" />
      <trkpt lat="46.343000" lon="9.559600" />
      <trkpt lat="46.340750" lon="9.554800" />
      <trkpt lat="46.338500" lon="9.550000" />
      <trkpt lat="46.336250" lon="9.545200" />
      <trkpt lat="46.334000" lon="9.540400" />
      <trkpt lat="46.331750" lon="9.535600" />
      <trkpt lat="46.329500" lon="9.530800" />
      <trkpt lat="46.327250" lon="9.526000" />
      <trkpt lat="46.325000" lon="9.521200" />
      <trkpt lat="46.322750" lon="9.516400" />
      <trkpt lat="46.320500" lon="9.511600" />
      <trkpt lat="46.318250" lon="9.506800" />
      <trkpt lat="46.316000" lon="9.502000" />
      <trkpt lat="46.320350" lon="9.506950" />
      <trkpt lat="46.324700" lon="9.511900" />
      <trkpt lat="46.329050" lon="9.516850" />
      <trkpt lat="46.333400" lon="9.521800" />
      <trkpt lat="46.337750" lon="9.526750" />
      <trkpt lat="46.342100" lon="9.531700" />
      <trkpt lat="46.346450" lon="9.536650" />
      <trkpt lat="46.350800" lon="9.541600" />
      <trkpt lat="46.355150" lon="9.546550" />
      <trkpt lat="46.359500" lon="9.551500" />
      <trkpt lat="46.363850" lon="9.556450" />
      <trkpt lat="46.368200" lon="9.561400" />
      <trkpt lat="46.372550" lon="9.566350" />
      <trkpt lat="46.376900" lon="9.571300" />
      <trkpt lat="46.381250" lon="9.576250" />
      <trkpt lat="46.385600" lon="9.581200" />
      <trkpt lat="46.389950" lon="9.586150" />
      <trkpt lat="46.394300" lon="9.591100" />
      <trkpt lat="46.398650" lon="9.596050" />
      <trkpt lat="46.403000" lon="9.601000" />
      <trkpt lat="46.407350" lon="9.605950" />
      <trkpt lat="46.411700" lon="9.610900" />
      <trkpt lat="46.416050" lon="9.615850" />
      <trkpt lat="46.420400" lon="9.620800" />
      <trkpt lat="46.424750" lon="9.625750" />
      <trkpt lat="46.429100" lon="9.630700" />
      <trkpt lat="46.433450" lon="9.635650" />
      <trkpt lat="46.437800" lon="9.640600" />
      <trkpt lat="46.442150" lon="9.645550" />
      <trkpt lat="46.446500" lon="9.650500" />
      <trkpt lat="46.450850" lon="9.655450" />
      <trkpt lat="46.455200" lon="9.660400" />
      <trkpt lat="46.459550" lon="9.665350" />
      <trkpt lat="46.463900" lon="9.670300" />
      <trkpt lat="46.468250" lon="9.675250" />
      <trkpt lat="46.472600" lon="9.680200" />
      <trkpt lat="46.476950" lon="9.685150" />
      <trkpt lat="46.481300" lon="9.690100" />
      <trkpt lat="46.485650" lon="9.695050" />
      <trkpt lat="46.490000" lon="9.700000" />
      <trkpt lat="46.488000" lon="9.708150" />
      <trkpt lat="46.486000" lon="9.716300" />
      <trkpt lat="46.484000" lon="9.724450" />
      <trkpt lat="46.482000" lon="9.732600" />
      <trkpt lat="46.480000" lon="9.740750" />
      <trkpt lat="46.478000" lon="9.748900" />
      <trkpt lat="46.476000" lon="9.757050" />
      <trkpt lat="46.474000" lon="9.765200" />
      <trkpt lat="46.472000" lon="9.773350" />
      <trkpt lat="46.470000" lon="9.781500" />
      <trkpt lat="46.468000" lon="9.789650" />
      <trkpt lat="46.466000" lon="9.797800" />
      <trkpt lat="46.464000" lon="9.805950" />
      <trkpt lat="46.462000" lon="9.814100" />
      <trkpt lat="46.460000" lon="9.822250" />
      <trkpt lat="46.458000" lon="9.830400" />
      <trkpt lat="46.456000" lon="9.838550" />
      <trkpt lat="46.454000" lon="9.846700" />
      <trkpt lat="46.452000" lon="9.854850" />
      <trkpt lat="46.450000" lon="9.863000" />
      <trkpt lat="46.448000" lon="9.871150" />
      <trkpt lat="46.446000" lon="9.879300" />
      <trkpt lat="46.444000" lon="9.887450" />
      <trkpt lat="46.442000" lon="9.895600" />
      <trkpt lat="46.440000" lon="9.903750" />
      <trkpt lat="46.438000" lon="9.911900" />
      <trkpt lat="46.436000" lon="9.920050" />
      <trkpt lat="46.434000" lon="9.928200" />
      <trkpt lat="46.432000" lon="9.936350" />
      <trkpt lat="46.430000" lon="9.944500" />
      <trkpt lat="46.428000" lon="9.952650" />
      <trkpt lat="46.426000" lon="9.960800" />
      <trkpt lat="46.424000" lon="9.968950" />
      <trkpt lat="46.422000" lon="9.977100" />
      <trkpt lat="46.420000" lon="9.985250" />
      <trkpt lat="46.418000" lon="9.993400" />
      <trkpt lat="46.416000" lon="10.001550" />
      <trkpt lat="46.414000" lon="10.009700" />
      <trkpt lat="46.412000" lon="10.017850" />
      <trkpt lat="46.410000" lon="10.026000" />
      <trkpt lat="46.407825" lon="10.029025" />
      <trkpt lat="46.405650" lon="10.032050" />
      <trkpt lat="46.403475" lon="10.035075" />
      <trkpt lat="46.401300" lon="10.038100" />
      <trkpt lat="46.399125" lon="10.041125" />
      <trkpt lat="46.396950" lon="10.044150" />
      <trkpt lat="46.394775" lon="10.047175" />
      <trkpt lat="46.392600" lon="10.050200" />
      <trkpt lat="46.390425" lon="10.053225" />
      <trkpt lat="46.388250" lon="10.056250" />
      <trkpt lat="46.386075" lon="10.059275" />
      <trkpt lat="46.383900" lon="10.062300" />
      <trkpt lat="46.381725" lon="10.065325" />
      <trkpt lat="46.379550" lon="10.068350" />
      <trkpt lat="46.377375" lon="10.071375" />
      <trkpt lat="46.375200" lon="10.074400" />
      <trkpt lat="46.373025" lon="10.077425" />
      <trkpt lat="46.370850" lon="10.080450" />
      <trkpt lat="46.368675" lon="10.083475" />
      <trkpt lat="46.366500" lon="10.086500" />
      <trkpt lat="46.364325" lon="10.089525" />
      <trkpt lat="46.362150" lon="10.092550" />
      <trkpt lat="46.359975" lon="10.095575" />
      <trkpt lat="46.357800" lon="10.098600" />
      <trkpt lat="46.355625" lon="10.101625" />
      <trkpt lat="46.353450" lon="10.104650" />
      <trkpt lat="46.351275" lon="10.107675" />
      <trkpt lat="46.349100" lon="10.110700" />
      <trkpt lat="46.346925" lon="10.113725" />
      <trkpt lat="46.344750" lon="10.116750" />
      <trkpt lat="46.342575" lon="10.119775" />
      <trkpt lat="46.340400" lon="10.122800" />
      <trkpt lat="46.338225" lon="10.125825" />
      <trkpt lat="46.336050" lon="10.128850" />
      <trkpt lat="46.333875" lon="10.131875" />
      <trkpt lat="46.331700" lon="10.134900" />
      <trkpt lat="46.329525" lon="10.137925" />
      <trkpt lat="46.327350" lon="10.140950" />
      <trkpt lat="46.325175" lon="10.143975" />
      <trkpt lat="46.323000" lon="10.147000" />
    </trkseg>
  </trk>
</gpx>
