<?xml version="1.0" encoding="UTF-8"?>
<gpx version="1.1" creator="SML Moto — example generator"
     xmlns="http://www.topografix.com/GPX/1/1"
     xmlns:xsi="http://www.w3.org/2001/XMLSchema-instance"
     xsi:schemaLocation="http://www.topografix.com/GPX/1/1 http://www.topografix.com/GPX/1/1/gpx.xsd">
  <metadata>
    <name>Central Alps Trilogy — Furka, Grimsel, Susten — navigation</name>
    <desc>UKAZKOVY OBSAH — priamkova interpolacia medzi priesmykmi, nie skutocna cesta. Sluzi na test doručovania, nie na navigaciu.</desc>
  </metadata>
  <rte>
    <name>Central Alps Trilogy — Furka, Grimsel, Susten</name>
    <rtept lat="46.686300" lon="8.594400"><name>Andermatt</name></rtept>
    <rtept lat="46.572500" lon="8.414700"><name>Furkapass</name></rtept>
    <rtept lat="46.561400" lon="8.337200"><name>Gletsch</name></rtept>
    <rtept lat="46.560600" lon="8.336900"><name>Grimselpass</name></rtept>
    <rtept lat="46.715600" lon="8.236100"><name>Innertkirchen</name></rtept>
    <rtept lat="46.727500" lon="8.445300"><name>Sustenpass</name></rtept>
    <rtept lat="46.736400" lon="8.628900"><name>Wassen</name></rtept>
    <rtept lat="46.686300" lon="8.594400"><name>Andermatt</name></rtept>
  </rte>
</gpx>
