<?xml version="1.0" encoding="UTF-8"?>
<gpx version="1.1" creator="SML Moto — example generator"
     xmlns="http://www.topografix.com/GPX/1/1"
     xmlns:xsi="http://www.w3.org/2001/XMLSchema-instance"
     xsi:schemaLocation="http://www.topografix.com/GPX/1/1 http://www.topografix.com/GPX/1/1/gpx.xsd">
  <metadata>
    <name>Trollstigen — track</name>
    <desc>UKAZKOVY OBSAH — priamkova interpolacia medzi priesmykmi, nie skutocna cesta. Sluzi na test doručovania, nie na navigaciu.</desc>
  </metadata>
  <trk>
    <name>Trollstigen</name>
    <trkseg>
      <trkpt lat="62.567000" lon="7.683000" />
      <trkpt lat="62.565825" lon="7.683175" />
      <trkpt lat="62.564650" lon="7.683350" />
      <trkpt lat="62.563475" lon="7.683525" />
      <trkpt lat="62.562300" lon="7.683700" />
      <trkpt lat="62.561125" lon="7.683875" />
      <trkpt lat="62.559950" lon="7.684050" />
      <trkpt lat="62.558775" lon="7.684225" />
      <trkpt lat="62.557600" lon="7.684400" />
      <trkpt lat="62.556425" lon="7.684575" />
      <trkpt lat="62.555250" lon="7.684750" />
      <trkpt lat="62.554075" lon="7.684925" />
      <trkpt lat="62.552900" lon="7.685100" />
      <trkpt lat="62.551725" lon="7.685275" />
      <trkpt lat="62.550550" lon="7.685450" />
      <trkpt lat="62.549375" lon="7.685625" />
      <trkpt lat="62.548200" lon="7.685800" />
      <trkpt lat="62.547025" lon="7.685975" />
      <trkpt lat="62.545850" lon="7.686150" />
      <trkpt lat="62.544675" lon="7.686325" />
      <trkpt lat="62.543500" lon="7.686500" />
      <trkpt lat="62.542325" lon="7.686675" />
      <trkpt lat="62.541150" lon="7.686850" />
      <trkpt lat="62.539975" lon="7.687025" />
      <trkpt lat="62.538800" lon="7.687200" />
      <trkpt lat="62.537625" lon="7.687375" />
      <trkpt lat="62.536450" lon="7.687550" />
      <trkpt lat="62.535275" lon="7.687725" />
      <trkpt lat="62.534100" lon="7.687900" />
      <trkpt lat="62.532925" lon="7.688075" />
      <trkpt lat="62.531750" lon="7.688250" />
      <trkpt lat="62.530575" lon="7.688425" />
      <trkpt lat="62.529400" lon="7.688600" />
      <trkpt lat="62.528225" lon="7.688775" />
      <trkpt lat="62.527050" lon="7.688950" />
      <trkpt lat="62.525875" lon="7.689125" />
      <trkpt lat="62.524700" lon="7.689300" />
      <trkpt lat="62.523525" lon="7.689475" />
      <trkpt lat="62.522350" lon="7.689650" />
      <trkpt lat="62.521175" lon="7.689825" />
      <trkpt lat="62.520000" lon="7.690000" />
      <trkpt lat="62.519000" lon="7.689500" />
      <trkpt lat="62.518000" lon="7.689000" />
      <trkpt lat="62.517000" lon="7.688500" />
      <trkpt lat="62.516000" lon="7.688000" />
      <trkpt lat="62.515000" lon="7.687500" />
      <trkpt lat="62.514000" lon="7.687000" />
      <trkpt lat="62.513000" lon="7.686500" />
      <trkpt lat="62.512000" lon="7.686000" />
      <trkpt lat="62.511000" lon="7.685500" />
      <trkpt lat="62.510000" lon="7.685000" />
      <trkpt lat="62.509000" lon="7.684500" />
      <trkpt lat="62.508000" lon="7.684000" />
      <trkpt lat="62.507000" lon="7.683500" />
      <trkpt lat="62.506000" lon="7.683000" />
      <trkpt lat="62.505000" lon="7.682500" />
      <trkpt lat="62.504000" lon="7.682000" />
      <trkpt lat="62.503000" lon="7.681500" />
      <trkpt lat="62.502000" lon="7.681000" />
      <trkpt lat="62.501000" lon="7.680500" />
      <trkpt lat="62.500000" lon="7.680000" />
      <trkpt lat="62.499000" lon="7.679500" />
      <trkpt lat="62.498000" lon="7.679000" />
      <trkpt lat="62.497000" lon="7.678500" />
      <trkpt lat="62.496000" lon="7.678000" />
      <trkpt lat="62.495000" lon="7.677500" />
      <trkpt lat="62.494000" lon="7.677000" />
      <trkpt lat="62.493000" lon="7.676500" />
      <trkpt lat="62.492000" lon="7.676000" />
      <trkpt lat="62.491000" lon="7.675500" />
      <trkpt lat="62.490000" lon="7.675000" />
      <trkpt lat="62.489000" lon="7.674500" />
      <trkpt lat="62.488000" lon="7.674000" />
      <trkpt lat="62.487000" lon="7.673500" />
      <trkpt lat="62.486000" lon="7.673000" />
      <trkpt lat="62.485000" lon="7.672500" />
      <trkpt lat="62.484000" lon="7.672000" />
      <trkpt lat="62.483000" lon="7.671500" />
      <trkpt lat="62.482000" lon="7.671000" />
      <trkpt lat="62.481000" lon="7.670500" />
      <trkpt lat="62.480000" lon="7.670000" />
      <trkpt lat="62.479400" lon="7.669800" />
      <trkpt lat="62.478800" lon="7.669600" />
      <trkpt lat="62.478200" lon="7.669400" />
      <trkpt lat="62.477600" lon="7.669200" />
      <trkpt lat="62.477000" lon="7.669000" />
      <trkpt lat="62.476400" lon="7.668800" />
      <trkpt lat="62.475800" lon="7.668600" />
      <trkpt lat="62.475200" lon="7.668400" />
      <trkpt lat="62.474600" lon="7.668200" />
      <trkpt lat="62.474000" lon="7.668000" />
      <trkpt lat="62.473400" lon="7.667800" />
      <trkpt lat="62.472800" lon="7.667600" />
      <trkpt lat="62.472200" lon="7.667400" />
      <trkpt lat="62.471600" lon="7.667200" />
      <trkpt lat="62.471000" lon="7.667000" />
      <trkpt lat="62.470400" lon="7.666800" />
      <trkpt lat="62.469800" lon="7.666600" />
      <trkpt lat="62.469200" lon="7.666400" />
      <trkpt lat="62.468600" lon="7.666200" />
      <trkpt lat="62.468000" lon="7.666000" />
      <trkpt lat="62.467400" lon="7.665800" />
      <trkpt lat="62.466800" lon="7.665600" />
      <trkpt lat="62.466200" lon="7.665400" />
      <trkpt lat="62.465600" lon="7.665200" />
      <trkpt lat="62.465000" lon="7.665000" />
      <trkpt lat="62.464400" lon="7.664800" />
      <trkpt lat="62.463800" lon="7.664600" />
      <trkpt lat="62.463200" lon="7.664400" />
      <trkpt lat="62.462600" lon="7.664200" />
      <trkpt lat="62.462000" lon="7.664000" />
      <trkpt lat="62.461400" lon="7.663800" />
      <trkpt lat="62.460800" lon="7.663600" />
      <trkpt lat="62.460200" lon="7.663400" />
      <trkpt lat="62.459600" lon="7.663200" />
      <trkpt lat="62.459000" lon="7.663000" />
      <trkpt lat="62.458400" lon="7.662800" />
      <trkpt lat="62.457800" lon="7.662600" />
      <trkpt lat="62.457200" lon="7.662400" />
      <trkpt lat="62.456600" lon="7.662200" />
      <trkpt lat="62.456000" lon="7.662000" />
      <trkpt lat="62.455100" lon="7.660450" />
      <trkpt lat="62.454200" lon="7.658900" />
      <trkpt lat="62.453300" lon="7.657350" />
      <trkpt lat="62.452400" lon="7.655800" />
      <trkpt lat="62.451500" lon="7.654250" />
      <trkpt lat="62.450600" lon="7.652700" />
      <trkpt lat="62.449700" lon="7.651150" />
      <trkpt lat="62.448800" lon="7.649600" />
      <trkpt lat="62.447900" lon="7.648050" />
      <trkpt lat="62.447000" lon="7.646500" />
      <trkpt lat="62.446100" lon="7.644950" />
      <trkpt lat="62.445200" lon="7.643400" />
      <trkpt lat="62.444300" lon="7.641850" />
      <trkpt lat="62.443400" lon="7.640300" />
      <trkpt lat="62.442500" lon="7.638750" />
      <trkpt lat="62.441600" lon="7.637200" />
      <trkpt lat="62.440700" lon="7.635650" />
      <trkpt lat="62.439800" lon="7.634100" />
      <trkpt lat="62.438900" lon="7.632550" />
      <trkpt lat="62.438000" lon="7.631000" />
      <trkpt lat="62.437100" lon="7.629450" />
      <trkpt lat="62.436200" lon="7.627900" />
      <trkpt lat="62.435300" lon="7.626350" />
      <trkpt lat="62.434400" lon="7.624800" />
      <trkpt lat="62.433500" lon="7.623250" />
      <trkpt lat="62.432600" lon="7.621700" />
      <trkpt lat="62.431700" lon="7.620150" />
      <trkpt lat="62.430800" lon="7.618600" />
      <trkpt lat="62.429900" lon="7.617050" />
      <trkpt lat="62.429000" lon="7.615500" />
      <trkpt lat="62.428100" lon="7.613950" />
      <trkpt lat="62.427200" lon="7.612400" />
      <trkpt lat="62.426300" lon="7.610850" />
      <trkpt lat="62.425400" lon="7.609300" />
      <trkpt lat="62.424500" lon="7.607750" />
      <trkpt lat="62.423600" lon="7.606200" />
      <trkpt lat="62.422700" lon="7.604650" />
      <trkpt lat="62.421800" lon="7.603100" />
      <trkpt lat="62.420900" lon="7.601550" />
      <trkpt lat="62.420000" lon="7.600000" />
      <trkpt lat="62.418250" lon="7.597000" />
      <trkpt lat="62.416500" lon="7.594000" />
      <trkpt lat="62.414750" lon="7.591000" />
      <trkpt lat="62.413000" lon="7.588000" />
      <trkpt lat="62.411250" lon="7.585000" />
      <trkpt lat="62.409500" lon="7.582000" />
      <trkpt lat="62.407750" lon="7.579000" />
      <trkpt lat="62.406000" lon="7.576000" />
      <trkpt lat="62.404250" lon="7.573000" />
      <trkpt lat="62.402500" lon="7.570000" />
      <trkpt lat="62.400750" lon="7.567000" />
      <trkpt lat="62.399000" lon="7.564000" />
      <trkpt lat="62.397250" lon="7.561000" />
      <trkpt lat="62.395500" lon="7.558000" />
      <trkpt lat="62.393750" lon="7.555000" />
      <trkpt lat="62.392000" lon="7.552000" />
      <trkpt lat="62.390250" lon="7.549000" />
      <trkpt lat="62.388500" lon="7.546000" />
      <trkpt lat="62.386750" lon="7.543000" />
      <trkpt lat="62.385000" lon="7.540000" />
      <trkpt lat="62.383250" lon="7.537000" />
      <trkpt lat="62.381500" lon="7.534000" />
      <trkpt lat="62.379750" lon="7.531000" />
      <trkpt lat="62.378000" lon="7.528000" />
      <trkpt lat="62.376250" lon="7.525000" />
      <trkpt lat="62.374500" lon="7.522000" />
      <trkpt lat="62.372750" lon="7.519000" />
      <trkpt lat="62.371000" lon="7.516000" />
      <trkpt lat="62.369250" lon="7.513000" />
      <trkpt lat="62.367500" lon="7.510000" />
      <trkpt lat="62.365750" lon="7.507000" />
      <trkpt lat="62.364000" lon="7.504000" />
      <trkpt lat="62.362250" lon="7.501000" />
      <trkpt lat="62.360500" lon="7.498000" />
      <trkpt lat="62.358750" lon="7.495000" />
      <trkpt lat="62.357000" lon="7.492000" />
      <trkpt lat="62.355250" lon="7.489000" />
      <trkpt lat="62.353500" lon="7.486000" />
      <trkpt lat="62.351750" lon="7.483000" />
      <trkpt lat="62.350000" lon="7.480000" />
      <trkpt lat="62.348775" lon="7.478475" />
      <trkpt lat="62.347550" lon="7.476950" />
      <trkpt lat="62.346325" lon="7.475425" />
      <trkpt lat="62.345100" lon="7.473900" />
      <trkpt lat="62.343875" lon="7.472375" />
      <trkpt lat="62.342650" lon="7.470850" />
      <trkpt lat="62.341425" lon="7.469325" />
      <trkpt lat="62.340200" lon="7.467800" />
      <trkpt lat="62.338975" lon="7.466275" />
      <trkpt lat="62.337750" lon="7.464750" />
      <trkpt lat="62.336525" lon="7.463225" />
      <trkpt lat="62.335300" lon="7.461700" />
      <trkpt lat="62.334075" lon="7.460175" />
      <trkpt lat="62.332850" lon="7.458650" />
      <trkpt lat="62.331625" lon="7.457125" />
      <trkpt lat="62.330400" lon="7.455600" />
      <trkpt lat="62.329175" lon="7.454075" />
      <trkpt lat="62.327950" lon="7.452550" />
      <trkpt lat="62.326725" lon="7.451025" />
      <trkpt lat="62.325500" lon="7.449500" />
      <trkpt lat="62.324275" lon="7.447975" />
      <trkpt lat="62.323050" lon="7.446450" />
      <trkpt lat="62.321825" lon="7.444925" />
      <trkpt lat="62.320600" lon="7.443400" />
      <trkpt lat="62.319375" lon="7.441875" />
      <trkpt lat="62.318150" lon="7.440350" />
      <trkpt lat="62.316925" lon="7.438825" />
      <trkpt lat="62.315700" lon="7.437300" />
      <trkpt lat="62.314475" lon="7.435775" />
      <trkpt lat="62.313250" lon="7.434250" />
      <trkpt lat="62.312025" lon="7.432725" />
      <trkpt lat="62.310800" lon="7.431200" />
      <trkpt lat="62.309575" lon="7.429675" />
      <trkpt lat="62.308350" lon="7.428150" />
      <trkpt lat="62.307125" lon="7.426625" />
      <trkpt lat="62.305900" lon="7.425100" />
      <trkpt lat="62.304675" lon="7.423575" />
      <trkpt lat="62.303450" lon="7.422050" />
      <trkpt lat="62.302225" lon="7.420525" />
      <trkpt lat="62.301000" lon="7.419000" />
    </trkseg>
  </trk>
</gpx>
