<?xml version="1.0" encoding="UTF-8"?>
<gpx version="1.1" creator="SML Moto — example generator"
     xmlns="http://www.topografix.com/GPX/1/1"
     xmlns:xsi="http://www.w3.org/2001/XMLSchema-instance"
     xsi:schemaLocation="http://www.topografix.com/GPX/1/1 http://www.topografix.com/GPX/1/1/gpx.xsd">
  <metadata>
    <name>Transfăgărășan — track</name>
    <desc>UKAZKOVY OBSAH — priamkova interpolacia medzi priesmykmi, nie skutocna cesta. Sluzi na test doručovania, nie na navigaciu.</desc>
  </metadata>
  <trk>
    <name>Transfăgărășan</name>
    <trkseg>
      <trkpt lat="44.977000" lon="24.674000" />
      <trkpt lat="44.982575" lon="24.672625" />
      <trkpt lat="44.988150" lon="24.671250" />
      <trkpt lat="44.993725" lon="24.669875" />
      <trkpt lat="44.999300" lon="24.668500" />
      <trkpt lat="45.004875" lon="24.667125" />
      <trkpt lat="45.010450" lon="24.665750" />
      <trkpt lat="45.016025" lon="24.664375" />
      <trkpt lat="45.021600" lon="24.663000" />
      <trkpt lat="45.027175" lon="24.661625" />
      <trkpt lat="45.032750" lon="24.660250" />
      <trkpt lat="45.038325" lon="24.658875" />
      <trkpt lat="45.043900" lon="24.657500" />
      <trkpt lat="45.049475" lon="24.656125" />
      <trkpt lat="45.055050" lon="24.654750" />
      <trkpt lat="45.060625" lon="24.653375" />
      <trkpt lat="45.066200" lon="24.652000" />
      <trkpt lat="45.071775" lon="24.650625" />
      <trkpt lat="45.077350" lon="24.649250" />
      <trkpt lat="45.082925" lon="24.647875" />
      <trkpt lat="45.088500" lon="24.646500" />
      <trkpt lat="45.094075" lon="24.645125" />
      <trkpt lat="45.099650" lon="24.643750" />
      <trkpt lat="45.105225" lon="24.642375" />
      <trkpt lat="45.110800" lon="24.641000" />
      <trkpt lat="45.116375" lon="24.639625" />
      <trkpt lat="45.121950" lon="24.638250" />
      <trkpt lat="45.127525" lon="24.636875" />
      <trkpt lat="45.133100" lon="24.635500" />
      <trkpt lat="45.138675" lon="24.634125" />
      <trkpt lat="45.144250" lon="24.632750" />
      <trkpt lat="45.149825" lon="24.631375" />
      <trkpt lat="45.155400" lon="24.630000" />
      <trkpt lat="45.160975" lon="24.628625" />
      <trkpt lat="45.166550" lon="24.627250" />
      <trkpt lat="45.172125" lon="24.625875" />
      <trkpt lat="45.177700" lon="24.624500" />
      <trkpt lat="45.183275" lon="24.623125" />
      <trkpt lat="45.188850" lon="24.621750" />
      <trkpt lat="45.194425" lon="24.620375" />
      <trkpt lat="45.200000" lon="24.619000" />
      <trkpt lat="45.204025" lon="24.619125" />
      <trkpt lat="45.208050" lon="24.619250" />
      <trkpt lat="45.212075" lon="24.619375" />
      <trkpt lat="45.216100" lon="24.619500" />
      <trkpt lat="45.220125" lon="24.619625" />
      <trkpt lat="45.224150" lon="24.619750" />
      <trkpt lat="45.228175" lon="24.619875" />
      <trkpt lat="45.232200" lon="24.620000" />
      <trkpt lat="45.236225" lon="24.620125" />
      <trkpt lat="45.240250" lon="24.620250" />
      <trkpt lat="45.244275" lon="24.620375" />
      <trkpt lat="45.248300" lon="24.620500" />
      <trkpt lat="45.252325" lon="24.620625" />
      <trkpt lat="45.256350" lon="24.620750" />
      <trkpt lat="45.260375" lon="24.620875" />
      <trkpt lat="45.264400" lon="24.621000" />
      <trkpt lat="45.268425" lon="24.621125" />
      <trkpt lat="45.272450" lon="24.621250" />
      <trkpt lat="45.276475" lon="24.621375" />
      <trkpt lat="45.280500" lon="24.621500" />
      <trkpt lat="45.284525" lon="24.621625" />
      <trkpt lat="45.288550" lon="24.621750" />
      <trkpt lat="45.292575" lon="24.621875" />
      <trkpt lat="45.296600" lon="24.622000" />
      <trkpt lat="45.300625" lon="24.622125" />
      <trkpt lat="45.304650" lon="24.622250" />
      <trkpt lat="45.308675" lon="24.622375" />
      <trkpt lat="45.312700" lon="24.622500" />
      <trkpt lat="45.316725" lon="24.622625" />
      <trkpt lat="45.320750" lon="24.622750" />
      <trkpt lat="45.324775" lon="24.622875" />
      <trkpt lat="45.328800" lon="24.623000" />
      <trkpt lat="45.332825" lon="24.623125" />
      <trkpt lat="45.336850" lon="24.623250" />
      <trkpt lat="45.340875" lon="24.623375" />
      <trkpt lat="45.344900" lon="24.623500" />
      <trkpt lat="45.348925" lon="24.623625" />
      <trkpt lat="45.352950" lon="24.623750" />
      <trkpt lat="45.356975" lon="24.623875" />
      <trkpt lat="45.361000" lon="24.624000" />
      <trkpt lat="45.361950" lon="24.624100" />
      <trkpt lat="45.362900" lon="24.624200" />
      <trkpt lat="45.363850" lon="24.624300" />
      <trkpt lat="45.364800" lon="24.624400" />
      <trkpt lat="45.365750" lon="24.624500" />
      <trkpt lat="45.366700" lon="24.624600" />
      <trkpt lat="45.367650" lon="24.624700" />
      <trkpt lat="45.368600" lon="24.624800" />
      <trkpt lat="45.369550" lon="24.624900" />
      <trkpt lat="45.370500" lon="24.625000" />
      <trkpt lat="45.371450" lon="24.625100" />
      <trkpt lat="45.372400" lon="24.625200" />
      <trkpt lat="45.373350" lon="24.625300" />
      <trkpt lat="45.374300" lon="24.625400" />
      <trkpt lat="45.375250" lon="24.625500" />
      <trkpt lat="45.376200" lon="24.625600" />
      <trkpt lat="45.377150" lon="24.625700" />
      <trkpt lat="45.378100" lon="24.625800" />
      <trkpt lat="45.379050" lon="24.625900" />
      <trkpt lat="45.380000" lon="24.626000" />
      <trkpt lat="45.380950" lon="24.626100" />
      <trkpt lat="45.381900" lon="24.626200" />
      <trkpt lat="45.382850" lon="24.626300" />
      <trkpt lat="45.383800" lon="24.626400" />
      <trkpt lat="45.384750" lon="24.626500" />
      <trkpt lat="45.385700" lon="24.626600" />
      <trkpt lat="45.386650" lon="24.626700" />
      <trkpt lat="45.387600" lon="24.626800" />
      <trkpt lat="45.388550" lon="24.626900" />
      <trkpt lat="45.389500" lon="24.627000" />
      <trkpt lat="45.390450" lon="24.627100" />
      <trkpt lat="45.391400" lon="24.627200" />
      <trkpt lat="45.392350" lon="24.627300" />
      <trkpt lat="45.393300" lon="24.627400" />
      <trkpt lat="45.394250" lon="24.627500" />
      <trkpt lat="45.395200" lon="24.627600" />
      <trkpt lat="45.396150" lon="24.627700" />
      <trkpt lat="45.397100" lon="24.627800" />
      <trkpt lat="45.398050" lon="24.627900" />
      <trkpt lat="45.399000" lon="24.628000" />
      <trkpt lat="45.403050" lon="24.625275" />
      <trkpt lat="45.407100" lon="24.622550" />
      <trkpt lat="45.411150" lon="24.619825" />
      <trkpt lat="45.415200" lon="24.617100" />
      <trkpt lat="45.419250" lon="24.614375" />
      <trkpt lat="45.423300" lon="24.611650" />
      <trkpt lat="45.427350" lon="24.608925" />
      <trkpt lat="45.431400" lon="24.606200" />
      <trkpt lat="45.435450" lon="24.603475" />
      <trkpt lat="45.439500" lon="24.600750" />
      <trkpt lat="45.443550" lon="24.598025" />
      <trkpt lat="45.447600" lon="24.595300" />
      <trkpt lat="45.451650" lon="24.592575" />
      <trkpt lat="45.455700" lon="24.589850" />
      <trkpt lat="45.459750" lon="24.587125" />
      <trkpt lat="45.463800" lon="24.584400" />
      <trkpt lat="45.467850" lon="24.581675" />
      <trkpt lat="45.471900" lon="24.578950" />
      <trkpt lat="45.475950" lon="24.576225" />
      <trkpt lat="45.480000" lon="24.573500" />
      <trkpt lat="45.484050" lon="24.570775" />
      <trkpt lat="45.488100" lon="24.568050" />
      <trkpt lat="45.492150" lon="24.565325" />
      <trkpt lat="45.496200" lon="24.562600" />
      <trkpt lat="45.500250" lon="24.559875" />
      <trkpt lat="45.504300" lon="24.557150" />
      <trkpt lat="45.508350" lon="24.554425" />
      <trkpt lat="45.512400" lon="24.551700" />
      <trkpt lat="45.516450" lon="24.548975" />
      <trkpt lat="45.520500" lon="24.546250" />
      <trkpt lat="45.524550" lon="24.543525" />
      <trkpt lat="45.528600" lon="24.540800" />
      <trkpt lat="45.532650" lon="24.538075" />
      <trkpt lat="45.536700" lon="24.535350" />
      <trkpt lat="45.540750" lon="24.532625" />
      <trkpt lat="45.544800" lon="24.529900" />
      <trkpt lat="45.548850" lon="24.527175" />
      <trkpt lat="45.552900" lon="24.524450" />
      <trkpt lat="45.556950" lon="24.521725" />
      <trkpt lat="45.561000" lon="24.519000" />
      <trkpt lat="45.562175" lon="24.518000" />
      <trkpt lat="45.563350" lon="24.517000" />
      <trkpt lat="45.564525" lon="24.516000" />
      <trkpt lat="45.565700" lon="24.515000" />
      <trkpt lat="45.566875" lon="24.514000" />
      <trkpt lat="45.568050" lon="24.513000" />
      <trkpt lat="45.569225" lon="24.512000" />
      <trkpt lat="45.570400" lon="24.511000" />
      <trkpt lat="45.571575" lon="24.510000" />
      <trkpt lat="45.572750" lon="24.509000" />
      <trkpt lat="45.573925" lon="24.508000" />
      <trkpt lat="45.575100" lon="24.507000" />
      <trkpt lat="45.576275" lon="24.506000" />
      <trkpt lat="45.577450" lon="24.505000" />
      <trkpt lat="45.578625" lon="24.504000" />
      <trkpt lat="45.579800" lon="24.503000" />
      <trkpt lat="45.580975" lon="24.502000" />
      <trkpt lat="45.582150" lon="24.501000" />
      <trkpt lat="45.583325" lon="24.500000" />
      <trkpt lat="45.584500" lon="24.499000" />
      <trkpt lat="45.585675" lon="24.498000" />
      <trkpt lat="45.586850" lon="24.497000" />
      <trkpt lat="45.588025" lon="24.496000" />
      <trkpt lat="45.589200" lon="24.495000" />
      <trkpt lat="45.590375" lon="24.494000" />
      <trkpt lat="45.591550" lon="24.493000" />
      <trkpt lat="45.592725" lon="24.492000" />
      <trkpt lat="45.593900" lon="24.491000" />
      <trkpt lat="45.595075" lon="24.490000" />
      <trkpt lat="45.596250" lon="24.489000" />
      <trkpt lat="45.597425" lon="24.488000" />
      <trkpt lat="45.598600" lon="24.487000" />
      <trkpt lat="45.599775" lon="24.486000" />
      <trkpt lat="45.600950" lon="24.485000" />
      <trkpt lat="45.602125" lon="24.484000" />
      <trkpt lat="45.603300" lon="24.483000" />
      <trkpt lat="45.604475" lon="24.482000" />
      <trkpt lat="45.605650" lon="24.481000" />
      <trkpt lat="45.606825" lon="24.480000" />
      <trkpt lat="45.608000" lon="24.479000" />
    </trkseg>
  </trk>
</gpx>
