<?xml version="1.0" encoding="UTF-8"?>
<gpx version="1.1" creator="SML Moto — example generator"
     xmlns="http://www.topografix.com/GPX/1/1"
     xmlns:xsi="http://www.w3.org/2001/XMLSchema-instance"
     xsi:schemaLocation="http://www.topografix.com/GPX/1/1 http://www.topografix.com/GPX/1/1/gpx.xsd">
  <metadata>
    <name>Julier Pass &amp; Flüela Pass — track</name>
    <desc>UKAZKOVY OBSAH — priamkova interpolacia medzi priesmykmi, nie skutocna cesta. Sluzi na test doručovania, nie na navigaciu.</desc>
  </metadata>
  <trk>
    <name>Julier Pass &amp; Flüela Pass</name>
    <trkseg>
      <trkpt lat="46.850000" lon="9.533000" />
      <trkpt lat="46.846025" lon="9.530625" />
      <trkpt lat="46.842050" lon="9.528250" />
      <trkpt lat="46.838075" lon="9.525875" />
      <trkpt lat="46.834100" lon="9.523500" />
      <trkpt lat="46.830125" lon="9.521125" />
      <trkpt lat="46.826150" lon="9.518750" />
      <trkpt lat="46.822175" lon="9.516375" />
      <trkpt lat="46.818200" lon="9.514000" />
      <trkpt lat="46.814225" lon="9.511625" />
      <trkpt lat="46.810250" lon="9.509250" />
      <trkpt lat="46.806275" lon="9.506875" />
      <trkpt lat="46.802300" lon="9.504500" />
      <trkpt lat="46.798325" lon="9.502125" />
      <trkpt lat="46.794350" lon="9.499750" />
      <trkpt lat="46.790375" lon="9.497375" />
      <trkpt lat="46.786400" lon="9.495000" />
      <trkpt lat="46.782425" lon="9.492625" />
      <trkpt lat="46.778450" lon="9.490250" />
      <trkpt lat="46.774475" lon="9.487875" />
      <trkpt lat="46.770500" lon="9.485500" />
      <trkpt lat="46.766525" lon="9.483125" />
      <trkpt lat="46.762550" lon="9.480750" />
      <trkpt lat="46.758575" lon="9.478375" />
      <trkpt lat="46.754600" lon="9.476000" />
      <trkpt lat="46.750625" lon="9.473625" />
      <trkpt lat="46.746650" lon="9.471250" />
      <trkpt lat="46.742675" lon="9.468875" />
      <trkpt lat="46.738700" lon="9.466500" />
      <trkpt lat="46.734725" lon="9.464125" />
      <trkpt lat="46.730750" lon="9.461750" />
      <trkpt lat="46.726775" lon="9.459375" />
      <trkpt lat="46.722800" lon="9.457000" />
      <trkpt lat="46.718825" lon="9.454625" />
      <trkpt lat="46.714850" lon="9.452250" />
      <trkpt lat="46.710875" lon="9.449875" />
      <trkpt lat="46.706900" lon="9.447500" />
      <trkpt lat="46.702925" lon="9.445125" />
      <trkpt lat="46.698950" lon="9.442750" />
      <trkpt lat="46.694975" lon="9.440375" />
      <trkpt lat="46.691000" lon="9.438000" />
      <trkpt lat="46.685475" lon="9.445200" />
      <trkpt lat="46.679950" lon="9.452400" />
      <trkpt lat="46.674425" lon="9.459600" />
      <trkpt lat="46.668900" lon="9.466800" />
      <trkpt lat="46.663375" lon="9.474000" />
      <trkpt lat="46.657850" lon="9.481200" />
      <trkpt lat="46.652325" lon="9.488400" />
      <trkpt lat="46.646800" lon="9.495600" />
      <trkpt lat="46.641275" lon="9.502800" />
      <trkpt lat="46.635750" lon="9.510000" />
      <trkpt lat="46.630225" lon="9.517200" />
      <trkpt lat="46.624700" lon="9.524400" />
      <trkpt lat="46.619175" lon="9.531600" />
      <trkpt lat="46.613650" lon="9.538800" />
      <trkpt lat="46.608125" lon="9.546000" />
      <trkpt lat="46.602600" lon="9.553200" />
      <trkpt lat="46.597075" lon="9.560400" />
      <trkpt lat="46.591550" lon="9.567600" />
      <trkpt lat="46.586025" lon="9.574800" />
      <trkpt lat="46.580500" lon="9.582000" />
      <trkpt lat="46.574975" lon="9.589200" />
      <trkpt lat="46.569450" lon="9.596400" />
      <trkpt lat="46.563925" lon="9.603600" />
      <trkpt lat="46.558400" lon="9.610800" />
      <trkpt lat="46.552875" lon="9.618000" />
      <trkpt lat="46.547350" lon="9.625200" />
      <trkpt lat="46.541825" lon="9.632400" />
      <trkpt lat="46.536300" lon="9.639600" />
      <trkpt lat="46.530775" lon="9.646800" />
      <trkpt lat="46.525250" lon="9.654000" />
      <trkpt lat="46.519725" lon="9.661200" />
      <trkpt lat="46.514200" lon="9.668400" />
      <trkpt lat="46.508675" lon="9.675600" />
      <trkpt lat="46.503150" lon="9.682800" />
      <trkpt lat="46.497625" lon="9.690000" />
      <trkpt lat="46.492100" lon="9.697200" />
      <trkpt lat="46.486575" lon="9.704400" />
      <trkpt lat="46.481050" lon="9.711600" />
      <trkpt lat="46.475525" lon="9.718800" />
      <trkpt lat="46.470000" lon="9.726000" />
      <trkpt lat="46.470750" lon="9.728800" />
      <trkpt lat="46.471500" lon="9.731600" />
      <trkpt lat="46.472250" lon="9.734400" />
      <trkpt lat="46.473000" lon="9.737200" />
      <trkpt lat="46.473750" lon="9.740000" />
      <trkpt lat="46.474500" lon="9.742800" />
      <trkpt lat="46.475250" lon="9.745600" />
      <trkpt lat="46.476000" lon="9.748400" />
      <trkpt lat="46.476750" lon="9.751200" />
      <trkpt lat="46.477500" lon="9.754000" />
      <trkpt lat="46.478250" lon="9.756800" />
      <trkpt lat="46.479000" lon="9.759600" />
      <trkpt lat="46.479750" lon="9.762400" />
      <trkpt lat="46.480500" lon="9.765200" />
      <trkpt lat="46.481250" lon="9.768000" />
      <trkpt lat="46.482000" lon="9.770800" />
      <trkpt lat="46.482750" lon="9.773600" />
      <trkpt lat="46.483500" lon="9.776400" />
      <trkpt lat="46.484250" lon="9.779200" />
      <trkpt lat="46.485000" lon="9.782000" />
      <trkpt lat="46.485750" lon="9.784800" />
      <trkpt lat="46.486500" lon="9.787600" />
      <trkpt lat="46.487250" lon="9.790400" />
      <trkpt lat="46.488000" lon="9.793200" />
      <trkpt lat="46.488750" lon="9.796000" />
      <trkpt lat="46.489500" lon="9.798800" />
      <trkpt lat="46.490250" lon="9.801600" />
      <trkpt lat="46.491000" lon="9.804400" />
      <trkpt lat="46.491750" lon="9.807200" />
      <trkpt lat="46.492500" lon="9.810000" />
      <trkpt lat="46.493250" lon="9.812800" />
      <trkpt lat="46.494000" lon="9.815600" />
      <trkpt lat="46.494750" lon="9.818400" />
      <trkpt lat="46.495500" lon="9.821200" />
      <trkpt lat="46.496250" lon="9.824000" />
      <trkpt lat="46.497000" lon="9.826800" />
      <trkpt lat="46.497750" lon="9.829600" />
      <trkpt lat="46.498500" lon="9.832400" />
      <trkpt lat="46.499250" lon="9.835200" />
      <trkpt lat="46.500000" lon="9.838000" />
      <trkpt lat="46.507275" lon="9.837500" />
      <trkpt lat="46.514550" lon="9.837000" />
      <trkpt lat="46.521825" lon="9.836500" />
      <trkpt lat="46.529100" lon="9.836000" />
      <trkpt lat="46.536375" lon="9.835500" />
      <trkpt lat="46.543650" lon="9.835000" />
      <trkpt lat="46.550925" lon="9.834500" />
      <trkpt lat="46.558200" lon="9.834000" />
      <trkpt lat="46.565475" lon="9.833500" />
      <trkpt lat="46.572750" lon="9.833000" />
      <trkpt lat="46.580025" lon="9.832500" />
      <trkpt lat="46.587300" lon="9.832000" />
      <trkpt lat="46.594575" lon="9.831500" />
      <trkpt lat="46.601850" lon="9.831000" />
      <trkpt lat="46.609125" lon="9.830500" />
      <trkpt lat="46.616400" lon="9.830000" />
      <trkpt lat="46.623675" lon="9.829500" />
      <trkpt lat="46.630950" lon="9.829000" />
      <trkpt lat="46.638225" lon="9.828500" />
      <trkpt lat="46.645500" lon="9.828000" />
      <trkpt lat="46.652775" lon="9.827500" />
      <trkpt lat="46.660050" lon="9.827000" />
      <trkpt lat="46.667325" lon="9.826500" />
      <trkpt lat="46.674600" lon="9.826000" />
      <trkpt lat="46.681875" lon="9.825500" />
      <trkpt lat="46.689150" lon="9.825000" />
      <trkpt lat="46.696425" lon="9.824500" />
      <trkpt lat="46.703700" lon="9.824000" />
      <trkpt lat="46.710975" lon="9.823500" />
      <trkpt lat="46.718250" lon="9.823000" />
      <trkpt lat="46.725525" lon="9.822500" />
      <trkpt lat="46.732800" lon="9.822000" />
      <trkpt lat="46.740075" lon="9.821500" />
      <trkpt lat="46.747350" lon="9.821000" />
      <trkpt lat="46.754625" lon="9.820500" />
      <trkpt lat="46.761900" lon="9.820000" />
      <trkpt lat="46.769175" lon="9.819500" />
      <trkpt lat="46.776450" lon="9.819000" />
      <trkpt lat="46.783725" lon="9.818500" />
      <trkpt lat="46.791000" lon="9.818000" />
      <trkpt lat="46.790125" lon="9.821250" />
      <trkpt lat="46.789250" lon="9.824500" />
      <trkpt lat="46.788375" lon="9.827750" />
      <trkpt lat="46.787500" lon="9.831000" />
      <trkpt lat="46.786625" lon="9.834250" />
      <trkpt lat="46.785750" lon="9.837500" />
      <trkpt lat="46.784875" lon="9.840750" />
      <trkpt lat="46.784000" lon="9.844000" />
      <trkpt lat="46.783125" lon="9.847250" />
      <trkpt lat="46.782250" lon="9.850500" />
      <trkpt lat="46.781375" lon="9.853750" />
      <trkpt lat="46.780500" lon="9.857000" />
      <trkpt lat="46.779625" lon="9.860250" />
      <trkpt lat="46.778750" lon="9.863500" />
      <trkpt lat="46.777875" lon="9.866750" />
      <trkpt lat="46.777000" lon="9.870000" />
      <trkpt lat="46.776125" lon="9.873250" />
      <trkpt lat="46.775250" lon="9.876500" />
      <trkpt lat="46.774375" lon="9.879750" />
      <trkpt lat="46.773500" lon="9.883000" />
      <trkpt lat="46.772625" lon="9.886250" />
      <trkpt lat="46.771750" lon="9.889500" />
      <trkpt lat="46.770875" lon="9.892750" />
      <trkpt lat="46.770000" lon="9.896000" />
      <trkpt lat="46.769125" lon="9.899250" />
      <trkpt lat="46.768250" lon="9.902500" />
      <trkpt lat="46.767375" lon="9.905750" />
      <trkpt lat="46.766500" lon="9.909000" />
      <trkpt lat="46.765625" lon="9.912250" />
      <trkpt lat="46.764750" lon="9.915500" />
      <trkpt lat="46.763875" lon="9.918750" />
      <trkpt lat="46.763000" lon="9.922000" />
      <trkpt lat="46.762125" lon="9.925250" />
      <trkpt lat="46.761250" lon="9.928500" />
      <trkpt lat="46.760375" lon="9.931750" />
      <trkpt lat="46.759500" lon="9.935000" />
      <trkpt lat="46.758625" lon="9.938250" />
      <trkpt lat="46.757750" lon="9.941500" />
      <trkpt lat="46.756875" lon="9.944750" />
      <trkpt lat="46.756000" lon="9.948000" />
      <trkpt lat="46.755000" lon="9.951650" />
      <trkpt lat="46.754000" lon="9.955300" />
      <trkpt lat="46.753000" lon="9.958950" />
      <trkpt lat="46.752000" lon="9.962600" />
      <trkpt lat="46.751000" lon="9.966250" />
      <trkpt lat="46.750000" lon="9.969900" />
      <trkpt lat="46.749000" lon="9.973550" />
      <trkpt lat="46.748000" lon="9.977200" />
      <trkpt lat="46.747000" lon="9.980850" />
      <trkpt lat="46.746000" lon="9.984500" />
      <trkpt lat="46.745000" lon="9.988150" />
      <trkpt lat="46.744000" lon="9.991800" />
      <trkpt lat="46.743000" lon="9.995450" />
      <trkpt lat="46.742000" lon="9.999100" />
      <trkpt lat="46.741000" lon="10.002750" />
      <trkpt lat="46.740000" lon="10.006400" />
      <trkpt lat="46.739000" lon="10.010050" />
      <trkpt lat="46.738000" lon="10.013700" />
      <trkpt lat="46.737000" lon="10.017350" />
      <trkpt lat="46.736000" lon="10.021000" />
      <trkpt lat="46.735000" lon="10.024650" />
      <trkpt lat="46.734000" lon="10.028300" />
      <trkpt lat="46.733000" lon="10.031950" />
      <trkpt lat="46.732000" lon="10.035600" />
      <trkpt lat="46.731000" lon="10.039250" />
      <trkpt lat="46.730000" lon="10.042900" />
      <trkpt lat="46.729000" lon="10.046550" />
      <trkpt lat="46.728000" lon="10.050200" />
      <trkpt lat="46.727000" lon="10.053850" />
      <trkpt lat="46.726000" lon="10.057500" />
      <trkpt lat="46.725000" lon="10.061150" />
      <trkpt lat="46.724000" lon="10.064800" />
      <trkpt lat="46.723000" lon="10.068450" />
      <trkpt lat="46.722000" lon="10.072100" />
      <trkpt lat="46.721000" lon="10.075750" />
      <trkpt lat="46.720000" lon="10.079400" />
      <trkpt lat="46.719000" lon="10.083050" />
      <trkpt lat="46.718000" lon="10.086700" />
      <trkpt lat="46.717000" lon="10.090350" />
      <trkpt lat="46.716000" lon="10.094000" />
    </trkseg>
  </trk>
</gpx>
