<?xml version="1.0" encoding="UTF-8"?>
<gpx version="1.1" creator="SML Moto — example generator"
     xmlns="http://www.topografix.com/GPX/1/1"
     xmlns:xsi="http://www.w3.org/2001/XMLSchema-instance"
     xsi:schemaLocation="http://www.topografix.com/GPX/1/1 http://www.topografix.com/GPX/1/1/gpx.xsd">
  <metadata>
    <name>Col du Galibier &amp; Télégraphe — track</name>
    <desc>UKAZKOVY OBSAH — priamkova interpolacia medzi priesmykmi, nie skutocna cesta. Sluzi na test doručovania, nie na navigaciu.</desc>
  </metadata>
  <trk>
    <name>Col du Galibier &amp; Télégraphe</name>
    <trkseg>
      <trkpt lat="45.189000" lon="5.725000" />
      <trkpt lat="45.185150" lon="5.740475" />
      <trkpt lat="45.181300" lon="5.755950" />
      <trkpt lat="45.177450" lon="5.771425" />
      <trkpt lat="45.173600" lon="5.786900" />
      <trkpt lat="45.169750" lon="5.802375" />
      <trkpt lat="45.165900" lon="5.817850" />
      <trkpt lat="45.162050" lon="5.833325" />
      <trkpt lat="45.158200" lon="5.848800" />
      <trkpt lat="45.154350" lon="5.864275" />
      <trkpt lat="45.150500" lon="5.879750" />
      <trkpt lat="45.146650" lon="5.895225" />
      <trkpt lat="45.142800" lon="5.910700" />
      <trkpt lat="45.138950" lon="5.926175" />
      <trkpt lat="45.135100" lon="5.941650" />
      <trkpt lat="45.131250" lon="5.957125" />
      <trkpt lat="45.127400" lon="5.972600" />
      <trkpt lat="45.123550" lon="5.988075" />
      <trkpt lat="45.119700" lon="6.003550" />
      <trkpt lat="45.115850" lon="6.019025" />
      <trkpt lat="45.112000" lon="6.034500" />
      <trkpt lat="45.108150" lon="6.049975" />
      <trkpt lat="45.104300" lon="6.065450" />
      <trkpt lat="45.100450" lon="6.080925" />
      <trkpt lat="45.096600" lon="6.096400" />
      <trkpt lat="45.092750" lon="6.111875" />
      <trkpt lat="45.088900" lon="6.127350" />
      <trkpt lat="45.085050" lon="6.142825" />
      <trkpt lat="45.081200" lon="6.158300" />
      <trkpt lat="45.077350" lon="6.173775" />
      <trkpt lat="45.073500" lon="6.189250" />
      <trkpt lat="45.069650" lon="6.204725" />
      <trkpt lat="45.065800" lon="6.220200" />
      <trkpt lat="45.061950" lon="6.235675" />
      <trkpt lat="45.058100" lon="6.251150" />
      <trkpt lat="45.054250" lon="6.266625" />
      <trkpt lat="45.050400" lon="6.282100" />
      <trkpt lat="45.046550" lon="6.297575" />
      <trkpt lat="45.042700" lon="6.313050" />
      <trkpt lat="45.038850" lon="6.328525" />
      <trkpt lat="45.035000" lon="6.344000" />
      <trkpt lat="45.035725" lon="6.345600" />
      <trkpt lat="45.036450" lon="6.347200" />
      <trkpt lat="45.037175" lon="6.348800" />
      <trkpt lat="45.037900" lon="6.350400" />
      <trkpt lat="45.038625" lon="6.352000" />
      <trkpt lat="45.039350" lon="6.353600" />
      <trkpt lat="45.040075" lon="6.355200" />
      <trkpt lat="45.040800" lon="6.356800" />
      <trkpt lat="45.041525" lon="6.358400" />
      <trkpt lat="45.042250" lon="6.360000" />
      <trkpt lat="45.042975" lon="6.361600" />
      <trkpt lat="45.043700" lon="6.363200" />
      <trkpt lat="45.044425" lon="6.364800" />
      <trkpt lat="45.045150" lon="6.366400" />
      <trkpt lat="45.045875" lon="6.368000" />
      <trkpt lat="45.046600" lon="6.369600" />
      <trkpt lat="45.047325" lon="6.371200" />
      <trkpt lat="45.048050" lon="6.372800" />
      <trkpt lat="45.048775" lon="6.374400" />
      <trkpt lat="45.049500" lon="6.376000" />
      <trkpt lat="45.050225" lon="6.377600" />
      <trkpt lat="45.050950" lon="6.379200" />
      <trkpt lat="45.051675" lon="6.380800" />
      <trkpt lat="45.052400" lon="6.382400" />
      <trkpt lat="45.053125" lon="6.384000" />
      <trkpt lat="45.053850" lon="6.385600" />
      <trkpt lat="45.054575" lon="6.387200" />
      <trkpt lat="45.055300" lon="6.388800" />
      <trkpt lat="45.056025" lon="6.390400" />
      <trkpt lat="45.056750" lon="6.392000" />
      <trkpt lat="45.057475" lon="6.393600" />
      <trkpt lat="45.058200" lon="6.395200" />
      <trkpt lat="45.058925" lon="6.396800" />
      <trkpt lat="45.059650" lon="6.398400" />
      <trkpt lat="45.060375" lon="6.400000" />
      <trkpt lat="45.061100" lon="6.401600" />
      <trkpt lat="45.061825" lon="6.403200" />
      <trkpt lat="45.062550" lon="6.404800" />
      <trkpt lat="45.063275" lon="6.406400" />
      <trkpt lat="45.064000" lon="6.408000" />
      <trkpt lat="45.064000" lon="6.407775" />
      <trkpt lat="45.064000" lon="6.407550" />
      <trkpt lat="45.064000" lon="6.407325" />
      <trkpt lat="45.064000" lon="6.407100" />
      <trkpt lat="45.064000" lon="6.406875" />
      <trkpt lat="45.064000" lon="6.406650" />
      <trkpt lat="45.064000" lon="6.406425" />
      <trkpt lat="45.064000" lon="6.406200" />
      <trkpt lat="45.064000" lon="6.405975" />
      <trkpt lat="45.064000" lon="6.405750" />
      <trkpt lat="45.064000" lon="6.405525" />
      <trkpt lat="45.064000" lon="6.405300" />
      <trkpt lat="45.064000" lon="6.405075" />
      <trkpt lat="45.064000" lon="6.404850" />
      <trkpt lat="45.064000" lon="6.404625" />
      <trkpt lat="45.064000" lon="6.404400" />
      <trkpt lat="45.064000" lon="6.404175" />
      <trkpt lat="45.064000" lon="6.403950" />
      <trkpt lat="45.064000" lon="6.403725" />
      <trkpt lat="45.064000" lon="6.403500" />
      <trkpt lat="45.064000" lon="6.403275" />
      <trkpt lat="45.064000" lon="6.403050" />
      <trkpt lat="45.064000" lon="6.402825" />
      <trkpt lat="45.064000" lon="6.402600" />
      <trkpt lat="45.064000" lon="6.402375" />
      <trkpt lat="45.064000" lon="6.402150" />
      <trkpt lat="45.064000" lon="6.401925" />
      <trkpt lat="45.064000" lon="6.401700" />
      <trkpt lat="45.064000" lon="6.401475" />
      <trkpt lat="45.064000" lon="6.401250" />
      <trkpt lat="45.064000" lon="6.401025" />
      <trkpt lat="45.064000" lon="6.400800" />
      <trkpt lat="45.064000" lon="6.400575" />
      <trkpt lat="45.064000" lon="6.400350" />
      <trkpt lat="45.064000" lon="6.400125" />
      <trkpt lat="45.064000" lon="6.399900" />
      <trkpt lat="45.064000" lon="6.399675" />
      <trkpt lat="45.064000" lon="6.399450" />
      <trkpt lat="45.064000" lon="6.399225" />
      <trkpt lat="45.064000" lon="6.399000" />
      <trkpt lat="45.067775" lon="6.400075" />
      <trkpt lat="45.071550" lon="6.401150" />
      <trkpt lat="45.075325" lon="6.402225" />
      <trkpt lat="45.079100" lon="6.403300" />
      <trkpt lat="45.082875" lon="6.404375" />
      <trkpt lat="45.086650" lon="6.405450" />
      <trkpt lat="45.090425" lon="6.406525" />
      <trkpt lat="45.094200" lon="6.407600" />
      <trkpt lat="45.097975" lon="6.408675" />
      <trkpt lat="45.101750" lon="6.409750" />
      <trkpt lat="45.105525" lon="6.410825" />
      <trkpt lat="45.109300" lon="6.411900" />
      <trkpt lat="45.113075" lon="6.412975" />
      <trkpt lat="45.116850" lon="6.414050" />
      <trkpt lat="45.120625" lon="6.415125" />
      <trkpt lat="45.124400" lon="6.416200" />
      <trkpt lat="45.128175" lon="6.417275" />
      <trkpt lat="45.131950" lon="6.418350" />
      <trkpt lat="45.135725" lon="6.419425" />
      <trkpt lat="45.139500" lon="6.420500" />
      <trkpt lat="45.143275" lon="6.421575" />
      <trkpt lat="45.147050" lon="6.422650" />
      <trkpt lat="45.150825" lon="6.423725" />
      <trkpt lat="45.154600" lon="6.424800" />
      <trkpt lat="45.158375" lon="6.425875" />
      <trkpt lat="45.162150" lon="6.426950" />
      <trkpt lat="45.165925" lon="6.428025" />
      <trkpt lat="45.169700" lon="6.429100" />
      <trkpt lat="45.173475" lon="6.430175" />
      <trkpt lat="45.177250" lon="6.431250" />
      <trkpt lat="45.181025" lon="6.432325" />
      <trkpt lat="45.184800" lon="6.433400" />
      <trkpt lat="45.188575" lon="6.434475" />
      <trkpt lat="45.192350" lon="6.435550" />
      <trkpt lat="45.196125" lon="6.436625" />
      <trkpt lat="45.199900" lon="6.437700" />
      <trkpt lat="45.203675" lon="6.438775" />
      <trkpt lat="45.207450" lon="6.439850" />
      <trkpt lat="45.211225" lon="6.440925" />
      <trkpt lat="45.215000" lon="6.442000" />
      <trkpt lat="45.216725" lon="6.439675" />
      <trkpt lat="45.218450" lon="6.437350" />
      <trkpt lat="45.220175" lon="6.435025" />
      <trkpt lat="45.221900" lon="6.432700" />
      <trkpt lat="45.223625" lon="6.430375" />
      <trkpt lat="45.225350" lon="6.428050" />
      <trkpt lat="45.227075" lon="6.425725" />
      <trkpt lat="45.228800" lon="6.423400" />
      <trkpt lat="45.230525" lon="6.421075" />
      <trkpt lat="45.232250" lon="6.418750" />
      <trkpt lat="45.233975" lon="6.416425" />
      <trkpt lat="45.235700" lon="6.414100" />
      <trkpt lat="45.237425" lon="6.411775" />
      <trkpt lat="45.239150" lon="6.409450" />
      <trkpt lat="45.240875" lon="6.407125" />
      <trkpt lat="45.242600" lon="6.404800" />
      <trkpt lat="45.244325" lon="6.402475" />
      <trkpt lat="45.246050" lon="6.400150" />
      <trkpt lat="45.247775" lon="6.397825" />
      <trkpt lat="45.249500" lon="6.395500" />
      <trkpt lat="45.251225" lon="6.393175" />
      <trkpt lat="45.252950" lon="6.390850" />
      <trkpt lat="45.254675" lon="6.388525" />
      <trkpt lat="45.256400" lon="6.386200" />
      <trkpt lat="45.258125" lon="6.383875" />
      <trkpt lat="45.259850" lon="6.381550" />
      <trkpt lat="45.261575" lon="6.379225" />
      <trkpt lat="45.263300" lon="6.376900" />
      <trkpt lat="45.265025" lon="6.374575" />
      <trkpt lat="45.266750" lon="6.372250" />
      <trkpt lat="45.268475" lon="6.369925" />
      <trkpt lat="45.270200" lon="6.367600" />
      <trkpt lat="45.271925" lon="6.365275" />
      <trkpt lat="45.273650" lon="6.362950" />
      <trkpt lat="45.275375" lon="6.360625" />
      <trkpt lat="45.277100" lon="6.358300" />
      <trkpt lat="45.278825" lon="6.355975" />
      <trkpt lat="45.280550" lon="6.353650" />
      <trkpt lat="45.282275" lon="6.351325" />
      <trkpt lat="45.284000" lon="6.349000" />
    </trkseg>
  </trk>
</gpx>
