<?xml version="1.0" encoding="UTF-8"?>
<gpx version="1.1" creator="SML Moto — example generator"
     xmlns="http://www.topografix.com/GPX/1/1"
     xmlns:xsi="http://www.w3.org/2001/XMLSchema-instance"
     xsi:schemaLocation="http://www.topografix.com/GPX/1/1 http://www.topografix.com/GPX/1/1/gpx.xsd">
  <metadata>
    <name>Passo dello Stelvio — track</name>
    <desc>UKAZKOVY OBSAH — priamkova interpolacia medzi priesmykmi, nie skutocna cesta. Sluzi na test doručovania, nie na navigaciu.</desc>
  </metadata>
  <trk>
    <name>Passo dello Stelvio</name>
    <trkseg>
      <trkpt lat="46.499000" lon="11.355000" />
      <trkpt lat="46.503325" lon="11.350125" />
      <trkpt lat="46.507650" lon="11.345250" />
      <trkpt lat="46.511975" lon="11.340375" />
      <trkpt lat="46.516300" lon="11.335500" />
      <trkpt lat="46.520625" lon="11.330625" />
      <trkpt lat="46.524950" lon="11.325750" />
      <trkpt lat="46.529275" lon="11.320875" />
      <trkpt lat="46.533600" lon="11.316000" />
      <trkpt lat="46.537925" lon="11.311125" />
      <trkpt lat="46.542250" lon="11.306250" />
      <trkpt lat="46.546575" lon="11.301375" />
      <trkpt lat="46.550900" lon="11.296500" />
      <trkpt lat="46.555225" lon="11.291625" />
      <trkpt lat="46.559550" lon="11.286750" />
      <trkpt lat="46.563875" lon="11.281875" />
      <trkpt lat="46.568200" lon="11.277000" />
      <trkpt lat="46.572525" lon="11.272125" />
      <trkpt lat="46.576850" lon="11.267250" />
      <trkpt lat="46.581175" lon="11.262375" />
      <trkpt lat="46.585500" lon="11.257500" />
      <trkpt lat="46.589825" lon="11.252625" />
      <trkpt lat="46.594150" lon="11.247750" />
      <trkpt lat="46.598475" lon="11.242875" />
      <trkpt lat="46.602800" lon="11.238000" />
      <trkpt lat="46.607125" lon="11.233125" />
      <trkpt lat="46.611450" lon="11.228250" />
      <trkpt lat="46.615775" lon="11.223375" />
      <trkpt lat="46.620100" lon="11.218500" />
      <trkpt lat="46.624425" lon="11.213625" />
      <trkpt lat="46.628750" lon="11.208750" />
      <trkpt lat="46.633075" lon="11.203875" />
      <trkpt lat="46.637400" lon="11.199000" />
      <trkpt lat="46.641725" lon="11.194125" />
      <trkpt lat="46.646050" lon="11.189250" />
      <trkpt lat="46.650375" lon="11.184375" />
      <trkpt lat="46.654700" lon="11.179500" />
      <trkpt lat="46.659025" lon="11.174625" />
      <trkpt lat="46.663350" lon="11.169750" />
      <trkpt lat="46.667675" lon="11.164875" />
      <trkpt lat="46.672000" lon="11.160000" />
      <trkpt lat="46.669900" lon="11.153225" />
      <trkpt lat="46.667800" lon="11.146450" />
      <trkpt lat="46.665700" lon="11.139675" />
      <trkpt lat="46.663600" lon="11.132900" />
      <trkpt lat="46.661500" lon="11.126125" />
      <trkpt lat="46.659400" lon="11.119350" />
      <trkpt lat="46.657300" lon="11.112575" />
      <trkpt lat="46.655200" lon="11.105800" />
      <trkpt lat="46.653100" lon="11.099025" />
      <trkpt lat="46.651000" lon="11.092250" />
      <trkpt lat="46.648900" lon="11.085475" />
      <trkpt lat="46.646800" lon="11.078700" />
      <trkpt lat="46.644700" lon="11.071925" />
      <trkpt lat="46.642600" lon="11.065150" />
      <trkpt lat="46.640500" lon="11.058375" />
      <trkpt lat="46.638400" lon="11.051600" />
      <trkpt lat="46.636300" lon="11.044825" />
      <trkpt lat="46.634200" lon="11.038050" />
      <trkpt lat="46.632100" lon="11.031275" />
      <trkpt lat="46.630000" lon="11.024500" />
      <trkpt lat="46.627900" lon="11.017725" />
      <trkpt lat="46.625800" lon="11.010950" />
      <trkpt lat="46.623700" lon="11.004175" />
      <trkpt lat="46.621600" lon="10.997400" />
      <trkpt lat="46.619500" lon="10.990625" />
      <trkpt lat="46.617400" lon="10.983850" />
      <trkpt lat="46.615300" lon="10.977075" />
      <trkpt lat="46.613200" lon="10.970300" />
      <trkpt lat="46.611100" lon="10.963525" />
      <trkpt lat="46.609000" lon="10.956750" />
      <trkpt lat="46.606900" lon="10.949975" />
      <trkpt lat="46.604800" lon="10.943200" />
      <trkpt lat="46.602700" lon="10.936425" />
      <trkpt lat="46.600600" lon="10.929650" />
      <trkpt lat="46.598500" lon="10.922875" />
      <trkpt lat="46.596400" lon="10.916100" />
      <trkpt lat="46.594300" lon="10.909325" />
      <trkpt lat="46.592200" lon="10.902550" />
      <trkpt lat="46.590100" lon="10.895775" />
      <trkpt lat="46.588000" lon="10.889000" />
      <trkpt lat="46.586425" lon="10.878100" />
      <trkpt lat="46.584850" lon="10.867200" />
      <trkpt lat="46.583275" lon="10.856300" />
      <trkpt lat="46.581700" lon="10.845400" />
      <trkpt lat="46.580125" lon="10.834500" />
      <trkpt lat="46.578550" lon="10.823600" />
      <trkpt lat="46.576975" lon="10.812700" />
      <trkpt lat="46.575400" lon="10.801800" />
      <trkpt lat="46.573825" lon="10.790900" />
      <trkpt lat="46.572250" lon="10.780000" />
      <trkpt lat="46.570675" lon="10.769100" />
      <trkpt lat="46.569100" lon="10.758200" />
      <trkpt lat="46.567525" lon="10.747300" />
      <trkpt lat="46.565950" lon="10.736400" />
      <trkpt lat="46.564375" lon="10.725500" />
      <trkpt lat="46.562800" lon="10.714600" />
      <trkpt lat="46.561225" lon="10.703700" />
      <trkpt lat="46.559650" lon="10.692800" />
      <trkpt lat="46.558075" lon="10.681900" />
      <trkpt lat="46.556500" lon="10.671000" />
      <trkpt lat="46.554925" lon="10.660100" />
      <trkpt lat="46.553350" lon="10.649200" />
      <trkpt lat="46.551775" lon="10.638300" />
      <trkpt lat="46.550200" lon="10.627400" />
      <trkpt lat="46.548625" lon="10.616500" />
      <trkpt lat="46.547050" lon="10.605600" />
      <trkpt lat="46.545475" lon="10.594700" />
      <trkpt lat="46.543900" lon="10.583800" />
      <trkpt lat="46.542325" lon="10.572900" />
      <trkpt lat="46.540750" lon="10.562000" />
      <trkpt lat="46.539175" lon="10.551100" />
      <trkpt lat="46.537600" lon="10.540200" />
      <trkpt lat="46.536025" lon="10.529300" />
      <trkpt lat="46.534450" lon="10.518400" />
      <trkpt lat="46.532875" lon="10.507500" />
      <trkpt lat="46.531300" lon="10.496600" />
      <trkpt lat="46.529725" lon="10.485700" />
      <trkpt lat="46.528150" lon="10.474800" />
      <trkpt lat="46.526575" lon="10.463900" />
      <trkpt lat="46.525000" lon="10.453000" />
      <trkpt lat="46.523650" lon="10.451000" />
      <trkpt lat="46.522300" lon="10.449000" />
      <trkpt lat="46.520950" lon="10.447000" />
      <trkpt lat="46.519600" lon="10.445000" />
      <trkpt lat="46.518250" lon="10.443000" />
      <trkpt lat="46.516900" lon="10.441000" />
      <trkpt lat="46.515550" lon="10.439000" />
      <trkpt lat="46.514200" lon="10.437000" />
      <trkpt lat="46.512850" lon="10.435000" />
      <trkpt lat="46.511500" lon="10.433000" />
      <trkpt lat="46.510150" lon="10.431000" />
      <trkpt lat="46.508800" lon="10.429000" />
      <trkpt lat="46.507450" lon="10.427000" />
      <trkpt lat="46.506100" lon="10.425000" />
      <trkpt lat="46.504750" lon="10.423000" />
      <trkpt lat="46.503400" lon="10.421000" />
      <trkpt lat="46.502050" lon="10.419000" />
      <trkpt lat="46.500700" lon="10.417000" />
      <trkpt lat="46.499350" lon="10.415000" />
      <trkpt lat="46.498000" lon="10.413000" />
      <trkpt lat="46.496650" lon="10.411000" />
      <trkpt lat="46.495300" lon="10.409000" />
      <trkpt lat="46.493950" lon="10.407000" />
      <trkpt lat="46.492600" lon="10.405000" />
      <trkpt lat="46.491250" lon="10.403000" />
      <trkpt lat="46.489900" lon="10.401000" />
      <trkpt lat="46.488550" lon="10.399000" />
      <trkpt lat="46.487200" lon="10.397000" />
      <trkpt lat="46.485850" lon="10.395000" />
      <trkpt lat="46.484500" lon="10.393000" />
      <trkpt lat="46.483150" lon="10.391000" />
      <trkpt lat="46.481800" lon="10.389000" />
      <trkpt lat="46.480450" lon="10.387000" />
      <trkpt lat="46.479100" lon="10.385000" />
      <trkpt lat="46.477750" lon="10.383000" />
      <trkpt lat="46.476400" lon="10.381000" />
      <trkpt lat="46.475050" lon="10.379000" />
      <trkpt lat="46.473700" lon="10.377000" />
      <trkpt lat="46.472350" lon="10.375000" />
      <trkpt lat="46.471000" lon="10.373000" />
      <trkpt lat="46.467650" lon="10.373950" />
      <trkpt lat="46.464300" lon="10.374900" />
      <trkpt lat="46.460950" lon="10.375850" />
      <trkpt lat="46.457600" lon="10.376800" />
      <trkpt lat="46.454250" lon="10.377750" />
      <trkpt lat="46.450900" lon="10.378700" />
      <trkpt lat="46.447550" lon="10.379650" />
      <trkpt lat="46.444200" lon="10.380600" />
      <trkpt lat="46.440850" lon="10.381550" />
      <trkpt lat="46.437500" lon="10.382500" />
      <trkpt lat="46.434150" lon="10.383450" />
      <trkpt lat="46.430800" lon="10.384400" />
      <trkpt lat="46.427450" lon="10.385350" />
      <trkpt lat="46.424100" lon="10.386300" />
      <trkpt lat="46.420750" lon="10.387250" />
      <trkpt lat="46.417400" lon="10.388200" />
      <trkpt lat="46.414050" lon="10.389150" />
      <trkpt lat="46.410700" lon="10.390100" />
      <trkpt lat="46.407350" lon="10.391050" />
      <trkpt lat="46.404000" lon="10.392000" />
      <trkpt lat="46.400650" lon="10.392950" />
      <trkpt lat="46.397300" lon="10.393900" />
      <trkpt lat="46.393950" lon="10.394850" />
      <trkpt lat="46.390600" lon="10.395800" />
      <trkpt lat="46.387250" lon="10.396750" />
      <trkpt lat="46.383900" lon="10.397700" />
      <trkpt lat="46.380550" lon="10.398650" />
      <trkpt lat="46.377200" lon="10.399600" />
      <trkpt lat="46.373850" lon="10.400550" />
      <trkpt lat="46.370500" lon="10.401500" />
      <trkpt lat="46.367150" lon="10.402450" />
      <trkpt lat="46.363800" lon="10.403400" />
      <trkpt lat="46.360450" lon="10.404350" />
      <trkpt lat="46.357100" lon="10.405300" />
      <trkpt lat="46.353750" lon="10.406250" />
      <trkpt lat="46.350400" lon="10.407200" />
      <trkpt lat="46.347050" lon="10.408150" />
      <trkpt lat="46.343700" lon="10.409100" />
      <trkpt lat="46.340350" lon="10.410050" />
      <trkpt lat="46.337000" lon="10.411000" />
    </trkseg>
  </trk>
</gpx>
