<?xml version="1.0" encoding="UTF-8"?>
<gpx version="1.1" creator="SML Moto — example generator"
     xmlns="http://www.topografix.com/GPX/1/1"
     xmlns:xsi="http://www.w3.org/2001/XMLSchema-instance"
     xsi:schemaLocation="http://www.topografix.com/GPX/1/1 http://www.topografix.com/GPX/1/1/gpx.xsd">
  <metadata>
    <name>Passo Pordoi &amp; Sella Ronda — track</name>
    <desc>UKAZKOVY OBSAH — priamkova interpolacia medzi priesmykmi, nie skutocna cesta. Sluzi na test doručovania, nie na navigaciu.</desc>
  </metadata>
  <trk>
    <name>Passo Pordoi &amp; Sella Ronda</name>
    <trkseg>
      <trkpt lat="46.499000" lon="11.876000" />
      <trkpt lat="46.498750" lon="11.874725" />
      <trkpt lat="46.498500" lon="11.873450" />
      <trkpt lat="46.498250" lon="11.872175" />
      <trkpt lat="46.498000" lon="11.870900" />
      <trkpt lat="46.497750" lon="11.869625" />
      <trkpt lat="46.497500" lon="11.868350" />
      <trkpt lat="46.497250" lon="11.867075" />
      <trkpt lat="46.497000" lon="11.865800" />
      <trkpt lat="46.496750" lon="11.864525" />
      <trkpt lat="46.496500" lon="11.863250" />
      <trkpt lat="46.496250" lon="11.861975" />
      <trkpt lat="46.496000" lon="11.860700" />
      <trkpt lat="46.495750" lon="11.859425" />
      <trkpt lat="46.495500" lon="11.858150" />
      <trkpt lat="46.495250" lon="11.856875" />
      <trkpt lat="46.495000" lon="11.855600" />
      <trkpt lat="46.494750" lon="11.854325" />
      <trkpt lat="46.494500" lon="11.853050" />
      <trkpt lat="46.494250" lon="11.851775" />
      <trkpt lat="46.494000" lon="11.850500" />
      <trkpt lat="46.493750" lon="11.849225" />
      <trkpt lat="46.493500" lon="11.847950" />
      <trkpt lat="46.493250" lon="11.846675" />
      <trkpt lat="46.493000" lon="11.845400" />
      <trkpt lat="46.492750" lon="11.844125" />
      <trkpt lat="46.492500" lon="11.842850" />
      <trkpt lat="46.492250" lon="11.841575" />
      <trkpt lat="46.492000" lon="11.840300" />
      <trkpt lat="46.491750" lon="11.839025" />
      <trkpt lat="46.491500" lon="11.837750" />
      <trkpt lat="46.491250" lon="11.836475" />
      <trkpt lat="46.491000" lon="11.835200" />
      <trkpt lat="46.490750" lon="11.833925" />
      <trkpt lat="46.490500" lon="11.832650" />
      <trkpt lat="46.490250" lon="11.831375" />
      <trkpt lat="46.490000" lon="11.830100" />
      <trkpt lat="46.489750" lon="11.828825" />
      <trkpt lat="46.489500" lon="11.827550" />
      <trkpt lat="46.489250" lon="11.826275" />
      <trkpt lat="46.489000" lon="11.825000" />
      <trkpt lat="46.488700" lon="11.823675" />
      <trkpt lat="46.488400" lon="11.822350" />
      <trkpt lat="46.488100" lon="11.821025" />
      <trkpt lat="46.487800" lon="11.819700" />
      <trkpt lat="46.487500" lon="11.818375" />
      <trkpt lat="46.487200" lon="11.817050" />
      <trkpt lat="46.486900" lon="11.815725" />
      <trkpt lat="46.486600" lon="11.814400" />
      <trkpt lat="46.486300" lon="11.813075" />
      <trkpt lat="46.486000" lon="11.811750" />
      <trkpt lat="46.485700" lon="11.810425" />
      <trkpt lat="46.485400" lon="11.809100" />
      <trkpt lat="46.485100" lon="11.807775" />
      <trkpt lat="46.484800" lon="11.806450" />
      <trkpt lat="46.484500" lon="11.805125" />
      <trkpt lat="46.484200" lon="11.803800" />
      <trkpt lat="46.483900" lon="11.802475" />
      <trkpt lat="46.483600" lon="11.801150" />
      <trkpt lat="46.483300" lon="11.799825" />
      <trkpt lat="46.483000" lon="11.798500" />
      <trkpt lat="46.482700" lon="11.797175" />
      <trkpt lat="46.482400" lon="11.795850" />
      <trkpt lat="46.482100" lon="11.794525" />
      <trkpt lat="46.481800" lon="11.793200" />
      <trkpt lat="46.481500" lon="11.791875" />
      <trkpt lat="46.481200" lon="11.790550" />
      <trkpt lat="46.480900" lon="11.789225" />
      <trkpt lat="46.480600" lon="11.787900" />
      <trkpt lat="46.480300" lon="11.786575" />
      <trkpt lat="46.480000" lon="11.785250" />
      <trkpt lat="46.479700" lon="11.783925" />
      <trkpt lat="46.479400" lon="11.782600" />
      <trkpt lat="46.479100" lon="11.781275" />
      <trkpt lat="46.478800" lon="11.779950" />
      <trkpt lat="46.478500" lon="11.778625" />
      <trkpt lat="46.478200" lon="11.777300" />
      <trkpt lat="46.477900" lon="11.775975" />
      <trkpt lat="46.477600" lon="11.774650" />
      <trkpt lat="46.477300" lon="11.773325" />
      <trkpt lat="46.477000" lon="11.772000" />
      <trkpt lat="46.477950" lon="11.770550" />
      <trkpt lat="46.478900" lon="11.769100" />
      <trkpt lat="46.479850" lon="11.767650" />
      <trkpt lat="46.480800" lon="11.766200" />
      <trkpt lat="46.481750" lon="11.764750" />
      <trkpt lat="46.482700" lon="11.763300" />
      <trkpt lat="46.483650" lon="11.761850" />
      <trkpt lat="46.484600" lon="11.760400" />
      <trkpt lat="46.485550" lon="11.758950" />
      <trkpt lat="46.486500" lon="11.757500" />
      <trkpt lat="46.487450" lon="11.756050" />
      <trkpt lat="46.488400" lon="11.754600" />
      <trkpt lat="46.489350" lon="11.753150" />
      <trkpt lat="46.490300" lon="11.751700" />
      <trkpt lat="46.491250" lon="11.750250" />
      <trkpt lat="46.492200" lon="11.748800" />
      <trkpt lat="46.493150" lon="11.747350" />
      <trkpt lat="46.494100" lon="11.745900" />
      <trkpt lat="46.495050" lon="11.744450" />
      <trkpt lat="46.496000" lon="11.743000" />
      <trkpt lat="46.496950" lon="11.741550" />
      <trkpt lat="46.497900" lon="11.740100" />
      <trkpt lat="46.498850" lon="11.738650" />
      <trkpt lat="46.499800" lon="11.737200" />
      <trkpt lat="46.500750" lon="11.735750" />
      <trkpt lat="46.501700" lon="11.734300" />
      <trkpt lat="46.502650" lon="11.732850" />
      <trkpt lat="46.503600" lon="11.731400" />
      <trkpt lat="46.504550" lon="11.729950" />
      <trkpt lat="46.505500" lon="11.728500" />
      <trkpt lat="46.506450" lon="11.727050" />
      <trkpt lat="46.507400" lon="11.725600" />
      <trkpt lat="46.508350" lon="11.724150" />
      <trkpt lat="46.509300" lon="11.722700" />
      <trkpt lat="46.510250" lon="11.721250" />
      <trkpt lat="46.511200" lon="11.719800" />
      <trkpt lat="46.512150" lon="11.718350" />
      <trkpt lat="46.513100" lon="11.716900" />
      <trkpt lat="46.514050" lon="11.715450" />
      <trkpt lat="46.515000" lon="11.714000" />
      <trkpt lat="46.516375" lon="11.713000" />
      <trkpt lat="46.517750" lon="11.712000" />
      <trkpt lat="46.519125" lon="11.711000" />
      <trkpt lat="46.520500" lon="11.710000" />
      <trkpt lat="46.521875" lon="11.709000" />
      <trkpt lat="46.523250" lon="11.708000" />
      <trkpt lat="46.524625" lon="11.707000" />
      <trkpt lat="46.526000" lon="11.706000" />
      <trkpt lat="46.527375" lon="11.705000" />
      <trkpt lat="46.528750" lon="11.704000" />
      <trkpt lat="46.530125" lon="11.703000" />
      <trkpt lat="46.531500" lon="11.702000" />
      <trkpt lat="46.532875" lon="11.701000" />
      <trkpt lat="46.534250" lon="11.700000" />
      <trkpt lat="46.535625" lon="11.699000" />
      <trkpt lat="46.537000" lon="11.698000" />
      <trkpt lat="46.538375" lon="11.697000" />
      <trkpt lat="46.539750" lon="11.696000" />
      <trkpt lat="46.541125" lon="11.695000" />
      <trkpt lat="46.542500" lon="11.694000" />
      <trkpt lat="46.543875" lon="11.693000" />
      <trkpt lat="46.545250" lon="11.692000" />
      <trkpt lat="46.546625" lon="11.691000" />
      <trkpt lat="46.548000" lon="11.690000" />
      <trkpt lat="46.549375" lon="11.689000" />
      <trkpt lat="46.550750" lon="11.688000" />
      <trkpt lat="46.552125" lon="11.687000" />
      <trkpt lat="46.553500" lon="11.686000" />
      <trkpt lat="46.554875" lon="11.685000" />
      <trkpt lat="46.556250" lon="11.684000" />
      <trkpt lat="46.557625" lon="11.683000" />
      <trkpt lat="46.559000" lon="11.682000" />
      <trkpt lat="46.560375" lon="11.681000" />
      <trkpt lat="46.561750" lon="11.680000" />
      <trkpt lat="46.563125" lon="11.679000" />
      <trkpt lat="46.564500" lon="11.678000" />
      <trkpt lat="46.565875" lon="11.677000" />
      <trkpt lat="46.567250" lon="11.676000" />
      <trkpt lat="46.568625" lon="11.675000" />
      <trkpt lat="46.570000" lon="11.674000" />
      <trkpt lat="46.569800" lon="11.675475" />
      <trkpt lat="46.569600" lon="11.676950" />
      <trkpt lat="46.569400" lon="11.678425" />
      <trkpt lat="46.569200" lon="11.679900" />
      <trkpt lat="46.569000" lon="11.681375" />
      <trkpt lat="46.568800" lon="11.682850" />
      <trkpt lat="46.568600" lon="11.684325" />
      <trkpt lat="46.568400" lon="11.685800" />
      <trkpt lat="46.568200" lon="11.687275" />
      <trkpt lat="46.568000" lon="11.688750" />
      <trkpt lat="46.567800" lon="11.690225" />
      <trkpt lat="46.567600" lon="11.691700" />
      <trkpt lat="46.567400" lon="11.693175" />
      <trkpt lat="46.567200" lon="11.694650" />
      <trkpt lat="46.567000" lon="11.696125" />
      <trkpt lat="46.566800" lon="11.697600" />
      <trkpt lat="46.566600" lon="11.699075" />
      <trkpt lat="46.566400" lon="11.700550" />
      <trkpt lat="46.566200" lon="11.702025" />
      <trkpt lat="46.566000" lon="11.703500" />
      <trkpt lat="46.565800" lon="11.704975" />
      <trkpt lat="46.565600" lon="11.706450" />
      <trkpt lat="46.565400" lon="11.707925" />
      <trkpt lat="46.565200" lon="11.709400" />
      <trkpt lat="46.565000" lon="11.710875" />
      <trkpt lat="46.564800" lon="11.712350" />
      <trkpt lat="46.564600" lon="11.713825" />
      <trkpt lat="46.564400" lon="11.715300" />
      <trkpt lat="46.564200" lon="11.716775" />
      <trkpt lat="46.564000" lon="11.718250" />
      <trkpt lat="46.563800" lon="11.719725" />
      <trkpt lat="46.563600" lon="11.721200" />
      <trkpt lat="46.563400" lon="11.722675" />
      <trkpt lat="46.563200" lon="11.724150" />
      <trkpt lat="46.563000" lon="11.725625" />
      <trkpt lat="46.562800" lon="11.727100" />
      <trkpt lat="46.562600" lon="11.728575" />
      <trkpt lat="46.562400" lon="11.730050" />
      <trkpt lat="46.562200" lon="11.731525" />
      <trkpt lat="46.562000" lon="11.733000" />
      <trkpt lat="46.560825" lon="11.732525" />
      <trkpt lat="46.559650" lon="11.732050" />
      <trkpt lat="46.558475" lon="11.731575" />
      <trkpt lat="46.557300" lon="11.731100" />
      <trkpt lat="46.556125" lon="11.730625" />
      <trkpt lat="46.554950" lon="11.730150" />
      <trkpt lat="46.553775" lon="11.729675" />
      <trkpt lat="46.552600" lon="11.729200" />
      <trkpt lat="46.551425" lon="11.728725" />
      <trkpt lat="46.550250" lon="11.728250" />
      <trkpt lat="46.549075" lon="11.727775" />
      <trkpt lat="46.547900" lon="11.727300" />
      <trkpt lat="46.546725" lon="11.726825" />
      <trkpt lat="46.545550" lon="11.726350" />
      <trkpt lat="46.544375" lon="11.725875" />
      <trkpt lat="46.543200" lon="11.725400" />
      <trkpt lat="46.542025" lon="11.724925" />
      <trkpt lat="46.540850" lon="11.724450" />
      <trkpt lat="46.539675" lon="11.723975" />
      <trkpt lat="46.538500" lon="11.723500" />
      <trkpt lat="46.537325" lon="11.723025" />
      <trkpt lat="46.536150" lon="11.722550" />
      <trkpt lat="46.534975" lon="11.722075" />
      <trkpt lat="46.533800" lon="11.721600" />
      <trkpt lat="46.532625" lon="11.721125" />
      <trkpt lat="46.531450" lon="11.720650" />
      <trkpt lat="46.530275" lon="11.720175" />
      <trkpt lat="46.529100" lon="11.719700" />
      <trkpt lat="46.527925" lon="11.719225" />
      <trkpt lat="46.526750" lon="11.718750" />
      <trkpt lat="46.525575" lon="11.718275" />
      <trkpt lat="46.524400" lon="11.717800" />
      <trkpt lat="46.523225" lon="11.717325" />
      <trkpt lat="46.522050" lon="11.716850" />
      <trkpt lat="46.520875" lon="11.716375" />
      <trkpt lat="46.519700" lon="11.715900" />
      <trkpt lat="46.518525" lon="11.715425" />
      <trkpt lat="46.517350" lon="11.714950" />
      <trkpt lat="46.516175" lon="11.714475" />
      <trkpt lat="46.515000" lon="11.714000" />
      <trkpt lat="46.514600" lon="11.718050" />
      <trkpt lat="46.514200" lon="11.722100" />
      <trkpt lat="46.513800" lon="11.726150" />
      <trkpt lat="46.513400" lon="11.730200" />
      <trkpt lat="46.513000" lon="11.734250" />
      <trkpt lat="46.512600" lon="11.738300" />
      <trkpt lat="46.512200" lon="11.742350" />
      <trkpt lat="46.511800" lon="11.746400" />
      <trkpt lat="46.511400" lon="11.750450" />
      <trkpt lat="46.511000" lon="11.754500" />
      <trkpt lat="46.510600" lon="11.758550" />
      <trkpt lat="46.510200" lon="11.762600" />
      <trkpt lat="46.509800" lon="11.766650" />
      <trkpt lat="46.509400" lon="11.770700" />
      <trkpt lat="46.509000" lon="11.774750" />
      <trkpt lat="46.508600" lon="11.778800" />
      <trkpt lat="46.508200" lon="11.782850" />
      <trkpt lat="46.507800" lon="11.786900" />
      <trkpt lat="46.507400" lon="11.790950" />
      <trkpt lat="46.507000" lon="11.795000" />
      <trkpt lat="46.506600" lon="11.799050" />
      <trkpt lat="46.506200" lon="11.803100" />
      <trkpt lat="46.505800" lon="11.807150" />
      <trkpt lat="46.505400" lon="11.811200" />
      <trkpt lat="46.505000" lon="11.815250" />
      <trkpt lat="46.504600" lon="11.819300" />
      <trkpt lat="46.504200" lon="11.823350" />
      <trkpt lat="46.503800" lon="11.827400" />
      <trkpt lat="46.503400" lon="11.831450" />
      <trkpt lat="46.503000" lon="11.835500" />
      <trkpt lat="46.502600" lon="11.839550" />
      <trkpt lat="46.502200" lon="11.843600" />
      <trkpt lat="46.501800" lon="11.847650" />
      <trkpt lat="46.501400" lon="11.851700" />
      <trkpt lat="46.501000" lon="11.855750" />
      <trkpt lat="46.500600" lon="11.859800" />
      <trkpt lat="46.500200" lon="11.863850" />
      <trkpt lat="46.499800" lon="11.867900" />
      <trkpt lat="46.499400" lon="11.871950" />
      <trkpt lat="46.499000" lon="11.876000" />
    </trkseg>
  </trk>
</gpx>
