<?xml version="1.0" encoding="UTF-8"?>
<gpx version="1.1" creator="SML Moto — example generator"
     xmlns="http://www.topografix.com/GPX/1/1"
     xmlns:xsi="http://www.w3.org/2001/XMLSchema-instance"
     xsi:schemaLocation="http://www.topografix.com/GPX/1/1 http://www.topografix.com/GPX/1/1/gpx.xsd">
  <metadata>
    <name>Col du Galibier &amp; Télégraphe — points of interest</name>
    <desc>UKAZKOVY OBSAH — priamkova interpolacia medzi priesmykmi, nie skutocna cesta. Sluzi na test doručovania, nie na navigaciu.</desc>
  </metadata>
  <wpt lat="45.035000" lon="6.344000">
    <name>Galibier 1</name>
    <sym>Summit</sym>
  </wpt>
  <wpt lat="45.064000" lon="6.408000">
    <name>Galibier 2</name>
    <sym>Summit</sym>
  </wpt>
  <wpt lat="45.064000" lon="6.399000">
    <name>Galibier 3</name>
    <sym>Summit</sym>
  </wpt>
  <wpt lat="45.215000" lon="6.442000">
    <name>Galibier 4</name>
    <sym>Summit</sym>
  </wpt>
</gpx>
