<?xml version="1.0" encoding="UTF-8"?>
<gpx version="1.1" creator="SML Moto — example generator"
     xmlns="http://www.topografix.com/GPX/1/1"
     xmlns:xsi="http://www.w3.org/2001/XMLSchema-instance"
     xsi:schemaLocation="http://www.topografix.com/GPX/1/1 http://www.topografix.com/GPX/1/1/gpx.xsd">
  <metadata>
    <name>Trollstigen — points of interest</name>
    <desc>UKAZKOVY OBSAH — priamkova interpolacia medzi priesmykmi, nie skutocna cesta. Sluzi na test doručovania, nie na navigaciu.</desc>
  </metadata>
  <wpt lat="62.520000" lon="7.690000">
    <name>Trollstigen 1</name>
    <sym>Summit</sym>
  </wpt>
  <wpt lat="62.480000" lon="7.670000">
    <name>Trollstigen 2</name>
    <sym>Summit</sym>
  </wpt>
  <wpt lat="62.456000" lon="7.662000">
    <name>Trollstigen 3</name>
    <sym>Summit</sym>
  </wpt>
  <wpt lat="62.420000" lon="7.600000">
    <name>Trollstigen 4</name>
    <sym>Summit</sym>
  </wpt>
  <wpt lat="62.350000" lon="7.480000">
    <name>Trollstigen 5</name>
    <sym>Summit</sym>
  </wpt>
</gpx>
