<?xml version="1.0" encoding="UTF-8"?>
<gpx version="1.1" creator="SML Moto — example generator"
     xmlns="http://www.topografix.com/GPX/1/1"
     xmlns:xsi="http://www.w3.org/2001/XMLSchema-instance"
     xsi:schemaLocation="http://www.topografix.com/GPX/1/1 http://www.topografix.com/GPX/1/1/gpx.xsd">
  <metadata>
    <name>Furka · Grimsel · Susten — points of interest</name>
    <desc>UKAZKOVY OBSAH — priamkova interpolacia medzi priesmykmi, nie skutocna cesta. Sluzi na test doručovania, nie na navigaciu.</desc>
  </metadata>
  <wpt lat="46.919000" lon="9.010000">
    <name>Furka 1</name>
    <sym>Summit</sym>
  </wpt>
  <wpt lat="46.881000" lon="8.644000">
    <name>Furka 2</name>
    <sym>Summit</sym>
  </wpt>
  <wpt lat="47.171000" lon="8.102000">
    <name>Furka 3</name>
    <sym>Summit</sym>
  </wpt>
  <wpt lat="46.728000" lon="8.181000">
    <name>Furka 4</name>
    <sym>Summit</sym>
  </wpt>
  <wpt lat="46.636000" lon="8.594000">
    <name>Furka 5</name>
    <sym>Summit</sym>
  </wpt>
  <wpt lat="46.710000" lon="8.229000">
    <name>Furka 6</name>
    <sym>Summit</sym>
  </wpt>
</gpx>
